{"type":"FeatureCollection","features":[{"type":"Feature","geometry":null,"properties":{"type":"Borne Fontaine","potable":"oui","nom":"Fontaine Desmoulins","adresse":"Rue Louis Desmoulins","commune":"TOURS","code_insee":"37261","date_pose":"Avant 2020","dispo":"24h\/24","date_maj":"2023-06-16","geo_point_2d":null,"gestion":"Pas de gestionnaire","validation":"Valide","preci_geo":"oui"}},{"type":"Feature","geometry":null,"properties":{"type":"Borne Fontaine","potable":"oui","nom":"Fontaine Halles","adresse":"Place des Halles","commune":"TOURS","code_insee":"37261","date_pose":"Avant 2020","dispo":"24h\/24","date_maj":"2023-06-16","geo_point_2d":null,"gestion":"Pas de gestionnaire","validation":"Valide","preci_geo":"oui"}},{"type":"Feature","geometry":null,"properties":{"type":"Borne Fontaine","potable":"oui","nom":"Fontaine B\u00e9ranger","adresse":"Boulevard B\u00e9ranger","commune":"TOURS","code_insee":"37261","date_pose":"Avant 2020","dispo":"24h\/24","date_maj":"2019-06-01","geo_point_2d":null,"gestion":"Pas de gestionnaire","validation":"Valide","preci_geo":"oui"}},{"type":"Feature","geometry":null,"properties":{"type":"Borne Fontaine","potable":null,"nom":null,"adresse":"Impasse Paul-Louis Courier","commune":"SAINT-PIERRE-DES-CORPS","code_insee":"37233","date_pose":null,"dispo":null,"date_maj":"2023-06-16","geo_point_2d":null,"gestion":null,"validation":null,"preci_geo":null}},{"type":"Feature","geometry":null,"properties":{"type":"Borne Fontaine","potable":null,"nom":null,"adresse":null,"commune":"PARCAY MESLAY","code_insee":null,"date_pose":null,"dispo":null,"date_maj":"2023-06-21","geo_point_2d":null,"gestion":null,"validation":null,"preci_geo":null}},{"type":"Feature","geometry":null,"properties":{"type":"Borne Fontaine","potable":null,"nom":null,"adresse":null,"commune":"CHAMBRAY LES TOURS","code_insee":null,"date_pose":"Avant 2020","dispo":null,"date_maj":"2023-06-21","geo_point_2d":null,"gestion":null,"validation":"Valide","preci_geo":null}},{"type":"Feature","geometry":null,"properties":{"type":"Borne Fontaine","potable":null,"nom":null,"adresse":"Rue de Chenonceaux","commune":"JOUE-LES-TOURS","code_insee":"37122","date_pose":"Avant 2020","dispo":null,"date_maj":"2023-06-21","geo_point_2d":null,"gestion":null,"validation":"Valide","preci_geo":null}},{"type":"Feature","geometry":null,"properties":{"type":"Borne Fontaine","potable":"oui","nom":"Fontaine Gloriette","adresse":"Parc de la Gloriette","commune":"TOURS","code_insee":"37261","date_pose":"Avant 2020","dispo":"24h\/24","date_maj":"2023-06-21","geo_point_2d":null,"gestion":"M\u00e9tropole autre gestionnaire","validation":"Valide","preci_geo":"oui"}},{"type":"Feature","geometry":null,"properties":{"type":"Borne Fontaine","potable":null,"nom":null,"adresse":null,"commune":"JOUE-LES-TOURS","code_insee":"37122","date_pose":"Avant 2020","dispo":null,"date_maj":"2023-06-21","geo_point_2d":null,"gestion":null,"validation":"Valide","preci_geo":null}},{"type":"Feature","geometry":null,"properties":{"type":"Brumisateur","potable":"oui","nom":"Jardin Chateaubriand","adresse":"Esplanade Fran\u00e7ois Mitterand","commune":"TOURS","code_insee":"37261","date_pose":null,"dispo":null,"date_maj":"2019-06-01","geo_point_2d":null,"gestion":null,"validation":"Valide","preci_geo":null}},{"type":"Feature","geometry":null,"properties":{"type":"Jeux d'eau","potable":"oui","nom":"Place de Strasbourg","adresse":"Place de Strasbourg","commune":"TOURS","code_insee":"37261","date_pose":null,"dispo":null,"date_maj":"2019-06-01","geo_point_2d":null,"gestion":null,"validation":"Valide","preci_geo":null}},{"type":"Feature","geometry":null,"properties":{"type":"Borne Fontaine","potable":"oui","nom":"Square Jean Mazou\u00e9","adresse":"Rue Jean Mermoz","commune":"TOURS","code_insee":"37261","date_pose":"Avant 2020","dispo":"24h\/24","date_maj":"2019-06-01","geo_point_2d":null,"gestion":"Ville de Tours\/DPVB","validation":"Valide","preci_geo":"oui"}},{"type":"Feature","geometry":null,"properties":{"type":"Jeux d'eau","potable":"oui","nom":"Jardin Beaujardin","adresse":"Place de Beaujardin","commune":"TOURS","code_insee":"37261","date_pose":null,"dispo":null,"date_maj":"2019-06-01","geo_point_2d":null,"gestion":null,"validation":"Valide","preci_geo":null}},{"type":"Feature","geometry":null,"properties":{"type":"Jeux d'eau","potable":"oui","nom":"Jardin Bouzignac","adresse":"Promenade de Florence","commune":"TOURS","code_insee":"37261","date_pose":null,"dispo":"24h\/24","date_maj":"2019-06-01","geo_point_2d":null,"gestion":"Ville de Tours\/DPVB","validation":"Valide","preci_geo":"non"}},{"type":"Feature","geometry":null,"properties":{"type":"Borne Fontaine","potable":"oui","nom":"Fontaine Saint-Rad\u00e9gonde","adresse":"Parc de Saint-Rad\u00e9gonde","commune":"TOURS","code_insee":"37261","date_pose":"Avant 2020","dispo":"24h\/24","date_maj":"2019-06-01","geo_point_2d":null,"gestion":"Ville de Tours\/DPVB","validation":"Valide","preci_geo":"oui"}},{"type":"Feature","geometry":null,"properties":{"type":"Borne Fontaine","potable":"oui","nom":"Jardin Mirabeau","adresse":"Rue Jean Goujon","commune":"TOURS","code_insee":"37261","date_pose":"2023","dispo":"Aux horaires d'ouverture du parc","date_maj":"2019-06-01","geo_point_2d":null,"gestion":"Ville de Tours\/DPVB","validation":"Valide","preci_geo":"non"}},{"type":"Feature","geometry":null,"properties":{"type":"Borne Fontaine","potable":null,"nom":null,"adresse":null,"commune":"TOURS","code_insee":"37261","date_pose":null,"dispo":"non","date_maj":"2023-06-19","geo_point_2d":null,"gestion":"???","validation":"En projet budget participatif","preci_geo":"non"}},{"type":"Feature","geometry":null,"properties":{"type":"Borne Fontaine","potable":null,"nom":null,"adresse":"Rue Nationale","commune":"TOURS","code_insee":"37261","date_pose":null,"dispo":null,"date_maj":"2023-06-21","geo_point_2d":null,"gestion":"???","validation":"En projet budget participatif","preci_geo":null}},{"type":"Feature","geometry":null,"properties":{"type":"Borne Fontaine","potable":"oui","nom":"Fontaine Rives du Cher","adresse":"Rue Honor\u00e9 Daumier","commune":"TOURS","code_insee":"37261","date_pose":"2023","dispo":"24h\/24","date_maj":"2023-06-19","geo_point_2d":null,"gestion":"Ville de Tours\/DPVB","validation":"Valide","preci_geo":"non"}},{"type":"Feature","geometry":null,"properties":{"type":"Borne Fontaine","potable":"oui","nom":"Fontaine Pont d'Ariane","adresse":"Mail David d'Angers","commune":"TOURS","code_insee":"37261","date_pose":"2023","dispo":"24h\/24","date_maj":"2023-06-19","geo_point_2d":null,"gestion":"Ville de Tours\/DPVB","validation":"Valide","preci_geo":"non"}},{"type":"Feature","geometry":null,"properties":{"type":"Borne Fontaine","potable":"oui","nom":"Fontaine Bretagne","adresse":"Rue de Chaumont","commune":"TOURS","code_insee":"37261","date_pose":"Avant 2020","dispo":"24h\/24","date_maj":"2023-06-19","geo_point_2d":null,"gestion":"Ville de Tours\/DPVB","validation":"Valide","preci_geo":"non"}},{"type":"Feature","geometry":null,"properties":{"type":"Borne Fontaine","potable":"oui","nom":"Fontaine Balzac","adresse":"Parc Honor\u00e9 de Balzac","commune":"TOURS","code_insee":"37261","date_pose":"2023","dispo":"24h\/24","date_maj":"2023-06-20","geo_point_2d":null,"gestion":"Ville de Tours\/DPVB","validation":"Valide","preci_geo":"non"}},{"type":"Feature","geometry":null,"properties":{"type":"Borne Fontaine","potable":"oui","nom":"Fontaine Pommiers","adresse":"Rue des Pommiers","commune":"JOUE-LES-TOURS","code_insee":"37122","date_pose":null,"dispo":"24h\/24","date_maj":"2023-06-21","geo_point_2d":null,"gestion":null,"validation":"Valide","preci_geo":null}},{"type":"Feature","geometry":null,"properties":{"type":"Borne Fontaine","potable":null,"nom":null,"adresse":null,"commune":"SAINT-AVERTIN","code_insee":null,"date_pose":null,"dispo":null,"date_maj":"2024-08-09","geo_point_2d":null,"gestion":null,"validation":null,"preci_geo":null}},{"type":"Feature","geometry":null,"properties":{"type":"Borne Fontaine","potable":"Oui","nom":"Jardin des Vikings","adresse":"Jardin des Vikings","commune":"TOURS","code_insee":"37261","date_pose":null,"dispo":"24h\/24","date_maj":"2024-08-08","geo_point_2d":null,"gestion":null,"validation":"Valide","preci_geo":"Non"}},{"type":"Feature","geometry":null,"properties":{"type":"Borne Fontaine","potable":"oui","nom":"Fontaine Saint-Rad\u00e9gonde","adresse":"Parc de Saint-Rad\u00e9gonde","commune":"TOURS","code_insee":"37261","date_pose":"Avant 2020","dispo":"24h\/24","date_maj":"2023-06-16","geo_point_2d":null,"gestion":"Pas de gestionnaire","validation":"Valide","preci_geo":null}},{"type":"Feature","geometry":null,"properties":{"type":"Borne Fontaine","potable":"oui","nom":"Fontaine du Maine","adresse":"Rue du Maine","commune":"TOURS","code_insee":"37261","date_pose":"Avant 2020","dispo":"24h\/24","date_maj":"2023-06-16","geo_point_2d":null,"gestion":"Pas de gestionnaire","validation":"Valide","preci_geo":"oui"}},{"type":"Feature","geometry":null,"properties":{"type":"Borne Fontaine","potable":"oui","nom":"Fontaine Jardin Chateaubriand","adresse":"Place du Nord","commune":"TOURS","code_insee":"37261","date_pose":"Avant 2020","dispo":"24h\/24","date_maj":"2023-06-16","geo_point_2d":null,"gestion":"Pas de gestionnaire","validation":"Valide","preci_geo":"oui"}},{"type":"Feature","geometry":null,"properties":{"type":"Borne Fontaine","potable":null,"nom":null,"adresse":null,"commune":"TOURS","code_insee":"37261","date_pose":null,"dispo":null,"date_maj":"2023-06-21","geo_point_2d":null,"gestion":null,"validation":"non","preci_geo":null}},{"type":"Feature","geometry":null,"properties":{"type":"Borne Fontaine","potable":"oui","nom":"Fontaine Rabelais","adresse":"Place Rabelais","commune":"TOURS","code_insee":"37261","date_pose":"Avant 2020","dispo":"24h\/24","date_maj":"2023-06-16","geo_point_2d":null,"gestion":"Pas de gestionnaire","validation":"Valide","preci_geo":"oui"}},{"type":"Feature","geometry":null,"properties":{"type":"Borne Fontaine","potable":"oui","nom":"Fontaine R\u00e9sistance","adresse":"Place de la R\u00e9sistance","commune":"TOURS","code_insee":"37261","date_pose":"Avant 2020","dispo":"24h\/24","date_maj":"2023-06-16","geo_point_2d":null,"gestion":"Pas de gestionnaire","validation":"Valide","preci_geo":"oui"}},{"type":"Feature","geometry":null,"properties":{"type":"Borne Fontaine","potable":"oui","nom":"Jardin du Mus\u00e9e des Beaux Arts","adresse":"Place Fran\u00e7ois Sicard","commune":"TOURS","code_insee":"37261","date_pose":"Avant 2020","dispo":"Aux horaires d'ouverture du parc","date_maj":"2019-06-01","geo_point_2d":null,"gestion":"Ville de Tours\/DPVB","validation":"Valide","preci_geo":"oui"}},{"type":"Feature","geometry":null,"properties":{"type":"Borne Fontaine","potable":"oui","nom":"Fontaine Saint-Rad\u00e9gonde","adresse":"Parc de Sainte-Radegonde","commune":"TOURS","code_insee":"37261","date_pose":"Avant 2020","dispo":"24h\/24","date_maj":"2023-06-19","geo_point_2d":null,"gestion":"Pas de gestionnaire","validation":"Valide","preci_geo":"non"}},{"type":"Feature","geometry":null,"properties":{"type":"Borne Fontaine","potable":"oui","nom":"Fontaine Louvois","adresse":"Place Louvois","commune":"TOURS","code_insee":"37261","date_pose":"Avant 2020","dispo":"24h\/24","date_maj":"2023-06-16","geo_point_2d":null,"gestion":"Pas de gestionnaire","validation":"Valide","preci_geo":"oui"}},{"type":"Feature","geometry":null,"properties":{"type":"Borne Fontaine","potable":null,"nom":null,"adresse":null,"commune":"ROCHECORBON","code_insee":null,"date_pose":null,"dispo":null,"date_maj":"2023-06-21","geo_point_2d":null,"gestion":null,"validation":null,"preci_geo":null}},{"type":"Feature","geometry":null,"properties":{"type":"Borne Fontaine","potable":"oui","nom":null,"adresse":"Place de la Libert\u00e9","commune":"JOUE-LES-TOURS","code_insee":"37122","date_pose":"Avant 2020","dispo":"24h\/24","date_maj":"2023-06-21","geo_point_2d":null,"gestion":null,"validation":"Valide","preci_geo":null}},{"type":"Feature","geometry":null,"properties":{"type":"Borne Fontaine","potable":"oui","nom":"Parc de la Rabi\u00e8re","adresse":"Rue de Verdun","commune":"JOUE-LES-TOURS","code_insee":"37122","date_pose":"Avant 2020","dispo":"24h\/24","date_maj":"2023-06-21","geo_point_2d":null,"gestion":null,"validation":"Valide","preci_geo":null}},{"type":"Feature","geometry":null,"properties":{"type":"Borne Fontaine","potable":"oui","nom":"Fontaine Grand March\u00e9","adresse":"Place du Grand March\u00e9","commune":"TOURS","code_insee":"37261","date_pose":"Avant 2020","dispo":"24h\/24","date_maj":"2023-06-19","geo_point_2d":null,"gestion":"Pas de gestionnaire","validation":"Valide","preci_geo":"oui"}},{"type":"Feature","geometry":null,"properties":{"type":"Brumisateur","potable":"oui","nom":"Plage de Tours","adresse":"Quai de Portillon","commune":"TOURS","code_insee":"37261","date_pose":null,"dispo":null,"date_maj":"2019-06-01","geo_point_2d":null,"gestion":null,"validation":"Valide","preci_geo":null}},{"type":"Feature","geometry":null,"properties":{"type":"Borne Fontaine","potable":"oui","nom":"Jardin Botanique","adresse":"Boulevard Tonnell\u00e9","commune":"TOURS","code_insee":"37261","date_pose":null,"dispo":null,"date_maj":"2019-06-01","geo_point_2d":null,"gestion":null,"validation":"non","preci_geo":null}},{"type":"Feature","geometry":null,"properties":{"type":"Borne Fontaine","potable":"oui","nom":"Jardin des Pr\u00e9bendes d'O\u00e9","adresse":"Rue Roger Salengro","commune":"TOURS","code_insee":"37261","date_pose":"Avant 2020","dispo":"Aux horaires d'ouverture du parc","date_maj":"2019-06-01","geo_point_2d":null,"gestion":"Ville de Tours\/DPVB","validation":"Valide","preci_geo":"non"}},{"type":"Feature","geometry":null,"properties":{"type":"Borne Fontaine","potable":"oui","nom":"Jardin Andr\u00e9 Theuriet","adresse":"Rue Andr\u00e9 Theuriet","commune":"TOURS","code_insee":"37261","date_pose":"Avant 2020","dispo":"24h\/24","date_maj":"2019-06-01","geo_point_2d":null,"gestion":"Pas de gestionnaire","validation":"Valide","preci_geo":"oui"}},{"type":"Feature","geometry":null,"properties":{"type":"Borne Fontaine","potable":"oui","nom":"Jardins Meffre et Saint-Paul","adresse":"Place Albert Philippon","commune":"TOURS","code_insee":"37261","date_pose":"Avant 2020","dispo":"24h\/24","date_maj":"2019-06-01","geo_point_2d":null,"gestion":"Ville de Tours\/DPVB","validation":"Valide","preci_geo":"non"}},{"type":"Feature","geometry":null,"properties":{"type":"Borne Fontaine","potable":"oui","nom":"Jardin de la Rotonde","adresse":"Avenue du G\u00e9n\u00e9ral de Gaulle","commune":"TOURS","code_insee":"37261","date_pose":"Avant 2020","dispo":"24h\/24","date_maj":"2019-06-01","geo_point_2d":null,"gestion":"M\u00e9tropole\/DPVB","validation":"Valide","preci_geo":"non"}},{"type":"Feature","geometry":null,"properties":{"type":"Borne Fontaine","potable":"oui","nom":"Fontaine Brel","adresse":"Rue Jacques Brel","commune":"TOURS","code_insee":"37261","date_pose":"Avant 2020","dispo":"24h\/24","date_maj":"2023-06-19","geo_point_2d":null,"gestion":"Ville de Tours\/DPVB","validation":"Valide","preci_geo":"non"}},{"type":"Feature","geometry":null,"properties":{"type":"Borne Fontaine","potable":"oui","nom":"Fontaine St Exupery","adresse":"Rue Saint-Exupery","commune":"TOURS","code_insee":"37261","date_pose":"Avant 2020","dispo":"24h\/24","date_maj":"2023-06-19","geo_point_2d":null,"gestion":"Ville de Tours\/DPVB","validation":"Valide","preci_geo":"non"}},{"type":"Feature","geometry":null,"properties":{"type":"Borne Fontaine","potable":null,"nom":null,"adresse":"Rue Nationale","commune":"TOURS","code_insee":"37261","date_pose":null,"dispo":null,"date_maj":"2023-06-21","geo_point_2d":null,"gestion":"???","validation":"Valide","preci_geo":null}},{"type":"Feature","geometry":null,"properties":{"type":"Borne Fontaine","potable":"oui","nom":"Fontaine Salancy","adresse":"Jardin Salancy","commune":"TOURS","code_insee":"37261","date_pose":"Avant 2020","dispo":"24h\/24","date_maj":"2023-06-19","geo_point_2d":null,"gestion":"Ville de Tours\/DPVB","validation":"Valide","preci_geo":"oui"}},{"type":"Feature","geometry":null,"properties":{"type":"Borne Fontaine","potable":"oui","nom":"Cit\u00e9 Alfred MAME","adresse":"Cit\u00e9 Alfred MAME","commune":"TOURS","code_insee":"37261","date_pose":null,"dispo":"24h\/24","date_maj":"2024-07-29","geo_point_2d":null,"gestion":"Pas de gestionnaire","validation":"Valide","preci_geo":null}},{"type":"Feature","geometry":null,"properties":{"type":"Borne Fontaine","potable":"Oui","nom":"Jardin de la Grenouill\u00e8re","adresse":"Jardin de la Grenouill\u00e8re","commune":"TOURS","code_insee":"37261","date_pose":null,"dispo":"24h\/24","date_maj":"2024-08-08","geo_point_2d":null,"gestion":null,"validation":"Valide","preci_geo":"Non"}},{"type":"Feature","geometry":null,"properties":{"type":"Borne Fontaine","potable":"oui","nom":"Beaujardin","adresse":"Place de Beaujardin","commune":"TOURS","code_insee":"37261","date_pose":"Avant 2020","dispo":"24h\/24","date_maj":"2023-06-16","geo_point_2d":null,"gestion":"Pas de gestionnaire","validation":"Valide","preci_geo":"oui"}},{"type":"Feature","geometry":null,"properties":{"type":"Borne Fontaine","potable":"oui","nom":"Fontaine Charpentier","adresse":"Rue Jules Charpentier","commune":"TOURS","code_insee":"37261","date_pose":"Avant 2020","dispo":"24h\/24","date_maj":"2023-06-16","geo_point_2d":null,"gestion":"Pas de gestionnaire","validation":"Valide","preci_geo":"oui"}},{"type":"Feature","geometry":null,"properties":{"type":"Borne Fontaine","potable":"oui","nom":"Fontaine Flandin","adresse":"Square Eug\u00e8ne Flandin","commune":"TOURS","code_insee":"37261","date_pose":"Avant 2020","dispo":"24h\/24","date_maj":"2023-06-19","geo_point_2d":null,"gestion":"Ville de Tours\/DPVB","validation":"Valide","preci_geo":"non"}},{"type":"Feature","geometry":null,"properties":{"type":"Borne Fontaine","potable":"oui","nom":"Jardin Botanique","adresse":"Boulevard Tonnell\u00e9","commune":"TOURS","code_insee":"37261","date_pose":"Avant 2020","dispo":"Aux horaires d'ouverture du parc","date_maj":"2023-06-19","geo_point_2d":null,"gestion":"Ville de Tours\/DPVB","validation":"Valide","preci_geo":"oui"}},{"type":"Feature","geometry":null,"properties":{"type":"Borne Fontaine","potable":"oui","nom":"Fontaine Botanique","adresse":"Boulevard Tonnell\u00e9","commune":"TOURS","code_insee":"37261","date_pose":"Avant 2020","dispo":"Aux horaires d'ouverture du parc","date_maj":"2019-06-01","geo_point_2d":null,"gestion":"Ville de Tours\/DPVB","validation":"Valide","preci_geo":"non"}},{"type":"Feature","geometry":null,"properties":{"type":"Borne Fontaine","potable":"oui","nom":"Fontaine Jardin Chateaubriand","adresse":"Place du Nord","commune":"TOURS","code_insee":"37261","date_pose":"Avant 2020","dispo":"24h\/24","date_maj":"2023-06-16","geo_point_2d":null,"gestion":"Ville de Tours\/DPVB","validation":"Valide","preci_geo":"oui"}},{"type":"Feature","geometry":null,"properties":{"type":"Borne Fontaine","potable":"oui","nom":"Fontaine Parking Paul Bert","adresse":"All\u00e9e de la Loire","commune":"TOURS","code_insee":"37261","date_pose":"Avant 2020","dispo":"24h\/24","date_maj":"2023-06-16","geo_point_2d":null,"gestion":"Pas de gestionnaire","validation":"Valide","preci_geo":"oui"}},{"type":"Feature","geometry":null,"properties":{"type":"Borne Fontaine","potable":"oui","nom":"Fontaine Maeterlinck","adresse":"Boulevard Maeterlinck","commune":"TOURS","code_insee":"37261","date_pose":"Avant 2020","dispo":"24h\/24","date_maj":"2023-06-16","geo_point_2d":null,"gestion":"Pas de gestionnaire","validation":"Valide","preci_geo":"oui"}},{"type":"Feature","geometry":null,"properties":{"type":"Borne Fontaine","potable":"oui","nom":"Fontaine Auguste","adresse":"Rue Philippe Auguste","commune":"TOURS","code_insee":"37261","date_pose":"Avant 2020","dispo":"24h\/24","date_maj":"2023-06-16","geo_point_2d":null,"gestion":"Pas de gestionnaire","validation":"Valide","preci_geo":"oui"}},{"type":"Feature","geometry":null,"properties":{"type":"Borne Fontaine","potable":"oui","nom":"Fontaine Proudhon","adresse":"Rue Alleron","commune":"TOURS","code_insee":"37261","date_pose":"Avant 2020","dispo":"24h\/24","date_maj":"2023-06-16","geo_point_2d":null,"gestion":"Pas de gestionnaire","validation":"Valide","preci_geo":"oui"}},{"type":"Feature","geometry":null,"properties":{"type":"Borne Fontaine","potable":"oui","nom":"Fontaine Paul Bert","adresse":"Place Paul Bert","commune":"TOURS","code_insee":"37261","date_pose":"Avant 2020","dispo":"24h\/24","date_maj":"2023-06-16","geo_point_2d":null,"gestion":"Pas de gestionnaire","validation":"Valide","preci_geo":"oui"}},{"type":"Feature","geometry":null,"properties":{"type":"Borne Fontaine","potable":"oui","nom":"Fontaine Velpeau","adresse":"Place Velpeau","commune":"TOURS","code_insee":"37261","date_pose":"Avant 2020","dispo":"24h\/24","date_maj":"2023-06-16","geo_point_2d":null,"gestion":"Pas de gestionnaire","validation":"Valide","preci_geo":"oui"}},{"type":"Feature","geometry":null,"properties":{"type":"Borne Fontaine","potable":"oui","nom":"Fontaine Tonnell\u00e9","adresse":"Boulevard Jean Monnet","commune":"TOURS","code_insee":"37261","date_pose":"Avant 2020","dispo":"Aux horaires d'ouverture du parc","date_maj":"2023-06-16","geo_point_2d":null,"gestion":"Ville de Tours\/DPVB","validation":"Valide","preci_geo":"oui"}},{"type":"Feature","geometry":null,"properties":{"type":"Borne Fontaine","potable":"oui","nom":"Fontaine Foire le Roi","adresse":"Place Foire-le-Roi","commune":"TOURS","code_insee":"37261","date_pose":"Avant 2020","dispo":"24h\/24","date_maj":"2023-06-21","geo_point_2d":null,"gestion":"Pas de gestionnaire","validation":"Valide","preci_geo":"oui"}},{"type":"Feature","geometry":null,"properties":{"type":"Borne Fontaine","potable":"oui","nom":"Fontaine Heurteloup","adresse":"Boulevard Heurteloup","commune":"TOURS","code_insee":"37261","date_pose":"Avant 2020","dispo":"24h\/24","date_maj":"2019-06-01","geo_point_2d":null,"gestion":"Pas de gestionnaire","validation":"Valide","preci_geo":"oui"}},{"type":"Feature","geometry":null,"properties":{"type":"Borne Fontaine","potable":null,"nom":null,"adresse":null,"commune":null,"code_insee":null,"date_pose":null,"dispo":null,"date_maj":"2023-06-21","geo_point_2d":null,"gestion":null,"validation":null,"preci_geo":null}},{"type":"Feature","geometry":null,"properties":{"type":"Borne Fontaine","potable":"oui","nom":"Jardin des Pr\u00e9bendes d'O\u00e9","adresse":"Rue Roger Salengro","commune":"TOURS","code_insee":"37261","date_pose":"2023","dispo":"Aux horaires d'ouverture du parc","date_maj":"2023-06-16","geo_point_2d":null,"gestion":"Ville de Tours\/DPVB","validation":"Valide","preci_geo":"non"}},{"type":"Feature","geometry":null,"properties":{"type":"Borne Fontaine","potable":"oui","nom":"Place Chateauneuf","adresse":"Place Chateauneuf","commune":"TOURS","code_insee":"37261","date_pose":"Avant 2020","dispo":"24h\/24","date_maj":"2023-06-19","geo_point_2d":null,"gestion":"Pas de gestionnaire","validation":"Valide","preci_geo":"oui"}},{"type":"Feature","geometry":null,"properties":{"type":"Borne Fontaine","potable":null,"nom":"Cath\u00e9drale Saint Gatien","adresse":"Rue Lavoisier","commune":"TOURS","code_insee":"37261","date_pose":"Avant 2020","dispo":"24h\/24","date_maj":"2023-06-21","geo_point_2d":null,"gestion":"Pas de gestionnaire","validation":"Valide","preci_geo":"oui"}},{"type":"Feature","geometry":null,"properties":{"type":"Borne Fontaine","potable":"oui","nom":"Fontaine St Martin","adresse":"Rue du Petit St Martin","commune":"TOURS","code_insee":"37261","date_pose":"Avant 2020","dispo":"24h\/24","date_maj":"2023-06-16","geo_point_2d":null,"gestion":"Pas de gestionnaire","validation":"Valide","preci_geo":"oui"}},{"type":"Feature","geometry":null,"properties":{"type":"Borne Fontaine","potable":"oui","nom":"Jardin Ren\u00e9-Boylesve","adresse":"Place de Strasbourg","commune":"TOURS","code_insee":"37261","date_pose":"Avant 2020","dispo":"24h\/24","date_maj":"2019-06-01","geo_point_2d":null,"gestion":"Pas de gestionnaire","validation":"Valide","preci_geo":"oui"}},{"type":"Feature","geometry":null,"properties":{"type":"Borne Fontaine","potable":"oui","nom":"Parc Honor\u00e9 de Balzac","adresse":"Avenue de Grammont","commune":"TOURS","code_insee":"37261","date_pose":"Avant 2020","dispo":"24h\/24","date_maj":"2019-06-01","geo_point_2d":null,"gestion":"Ville de Tours\/DPVB","validation":"Valide","preci_geo":"oui"}},{"type":"Feature","geometry":null,"properties":{"type":"Borne Fontaine","potable":"oui","nom":"Parc de la Bergeonnerie","adresse":"Avenue de Grammont","commune":"TOURS","code_insee":"37261","date_pose":"Avant 2020","dispo":"24h\/24","date_maj":"2019-06-01","geo_point_2d":null,"gestion":"M\u00e9tropole autre gestionnaire","validation":"Valide","preci_geo":"oui"}},{"type":"Feature","geometry":null,"properties":{"type":"Brumisateur","potable":"oui","nom":"Square Jean-Baptiste Greuze","adresse":"Rue Jean-Baptiste Greuze","commune":"TOURS","code_insee":"37261","date_pose":null,"dispo":null,"date_maj":"2019-06-01","geo_point_2d":null,"gestion":"Tours Habitat","validation":"Valide","preci_geo":null}},{"type":"Feature","geometry":null,"properties":{"type":"Jeux d'eau","potable":"oui","nom":"Jardins Meffre et Saint-Paul","adresse":"Place Albert Philippon","commune":"TOURS","code_insee":"37261","date_pose":null,"dispo":null,"date_maj":"2019-06-01","geo_point_2d":null,"gestion":null,"validation":"Non valide","preci_geo":null}},{"type":"Feature","geometry":null,"properties":{"type":"Borne Fontaine","potable":"oui","nom":"Fontaine Ecole Exup\u00e9ry","adresse":"Rue Saint-Exup\u00e9ry","commune":"TOURS","code_insee":"37261","date_pose":"2023","dispo":"24h\/24","date_maj":"2023-06-19","geo_point_2d":null,"gestion":"Ville de Tours\/DPVB","validation":"Valide","preci_geo":"non"}},{"type":"Feature","geometry":null,"properties":{"type":"Borne Fontaine","potable":"oui","nom":"Fontaine Coty","adresse":"Place du Pr\u00e9sident Coty","commune":"TOURS","code_insee":"37261","date_pose":"Avant 2020","dispo":"24h\/24","date_maj":"2023-06-19","geo_point_2d":null,"gestion":"Pas de gestionnaire","validation":"Valide","preci_geo":"non"}},{"type":"Feature","geometry":null,"properties":{"type":"Borne Fontaine","potable":"oui","nom":"Fontaine Saint-Rad\u00e9gonde","adresse":"Parc de Saint-Rad\u00e9gonde","commune":"TOURS","code_insee":"37261","date_pose":"2023","dispo":"24h\/24","date_maj":"2023-06-19","geo_point_2d":null,"gestion":"Ville de Tours\/DPVB","validation":"Valide","preci_geo":"non"}},{"type":"Feature","geometry":null,"properties":{"type":"Borne Fontaine","potable":null,"nom":"Guiguette de Tours","adresse":null,"commune":"TOURS","code_insee":"37261","date_pose":null,"dispo":"non","date_maj":"2024-07-29","geo_point_2d":null,"gestion":"???","validation":"Valide","preci_geo":"non"}},{"type":"Feature","geometry":null,"properties":{"type":"Borne Fontaine","potable":null,"nom":null,"adresse":"Rue Nationale","commune":"TOURS","code_insee":"37261","date_pose":null,"dispo":null,"date_maj":"2023-06-19","geo_point_2d":null,"gestion":"???","validation":"En projet budget participatif","preci_geo":"non"}},{"type":"Feature","geometry":null,"properties":{"type":"Borne Fontaine","potable":"oui","nom":"Jardin des Pr\u00e9bendes d'O\u00e9","adresse":null,"commune":"TOURS","code_insee":"37261","date_pose":"2023","dispo":"Aux horaires d'ouverture du parc","date_maj":"2023-06-19","geo_point_2d":null,"gestion":"Ville de Tours\/DPVB","validation":"Valide","preci_geo":"oui"}},{"type":"Feature","geometry":null,"properties":{"type":"Borne Fontaine","potable":"oui","nom":"Fontaine Strasbourg","adresse":"Place de Strasbourg","commune":"TOURS","code_insee":"37261","date_pose":"Avant 2020","dispo":"24h\/24","date_maj":"2023-06-19","geo_point_2d":null,"gestion":"Ville de Tours\/DPVB","validation":"Valide","preci_geo":"non"}},{"type":"Feature","geometry":null,"properties":{"type":"Borne Fontaine","potable":"oui","nom":"Fontaine 2Lions","adresse":"All\u00e9e Rosalind Franklin","commune":"TOURS","code_insee":"37261","date_pose":"Avant 2020","dispo":"24h\/24","date_maj":"2023-06-19","geo_point_2d":null,"gestion":"Pas de gestionnaire","validation":"Valide","preci_geo":"non"}},{"type":"Feature","geometry":null,"properties":{"type":"Borne Fontaine","potable":"oui","nom":"Fontaine Colli\u00e8res","adresse":"All\u00e9e Ferdinand de Lesseps","commune":"TOURS","code_insee":"37261","date_pose":"2023","dispo":"24h\/24","date_maj":"2023-06-19","geo_point_2d":null,"gestion":"Ville de Tours\/DPVB","validation":"Valide","preci_geo":"non"}},{"type":"Feature","geometry":null,"properties":{"type":"Borne Fontaine","potable":"oui","nom":"Fontaine 2 Lions","adresse":"All\u00e9e Ferdinand de Lesseps","commune":"TOURS","code_insee":"37261","date_pose":"Avant 2020","dispo":null,"date_maj":"2023-06-19","geo_point_2d":null,"gestion":"???","validation":"En projet budget participatif","preci_geo":null}},{"type":"Feature","geometry":null,"properties":{"type":"Fontaine Cimeti\u00e8re","potable":null,"nom":null,"adresse":null,"commune":"TOURS","code_insee":"37261","date_pose":"Avant 2020","dispo":"Aux horaires d'ouverture du cimeti\u00e8re","date_maj":"2023-06-19","geo_point_2d":null,"gestion":"Cimeti\u00e8re","validation":"Valide","preci_geo":null}},{"type":"Feature","geometry":null,"properties":{"type":"Borne Fontaine","potable":"oui","nom":"Fontaine Bretonni\u00e8res","adresse":null,"commune":"JOUE-LES-TOURS","code_insee":"37122","date_pose":null,"dispo":"24h\/24","date_maj":"2023-06-23","geo_point_2d":null,"gestion":null,"validation":"Valide","preci_geo":"non"}},{"type":"Feature","geometry":null,"properties":{"type":"Borne Fontaine","potable":"oui","nom":"Villa Rabelais","adresse":null,"commune":"TOURS","code_insee":"37261","date_pose":null,"dispo":null,"date_maj":"2024-07-29","geo_point_2d":null,"gestion":null,"validation":"Valide","preci_geo":null}},{"type":"Feature","geometry":null,"properties":{"type":"Borne Fontaine","potable":"Oui","nom":"CCCOD","adresse":"CCCOD","commune":"TOURS","code_insee":"37261","date_pose":"2024","dispo":"24h\/24","date_maj":"2024-08-09","geo_point_2d":null,"gestion":null,"validation":"Valide","preci_geo":"Non"}}]}