{"type":"FeatureCollection","features":[{"type":"Feature","geometry":{"coordinates":[2.715103688205132,43.3988045625536],"type":"Point"},"properties":{"n_eau_1":"AVM0046","n_eau_2":"046","nature":"CI","capacite":20,"geo_point_2d":{"lon":2.715103688205132,"lat":43.3988045625536},"gdb_archive_oid":5}},{"type":"Feature","geometry":{"coordinates":[2.7123066539631155,43.41364592906011],"type":"Point"},"properties":{"n_eau_1":"AVM0047","n_eau_2":"047","nature":"CI","capacite":25,"geo_point_2d":{"lon":2.7123066539631155,"lat":43.41364592906011},"gdb_archive_oid":6}},{"type":"Feature","geometry":{"coordinates":[2.769769556262309,43.44667259462652],"type":"Point"},"properties":{"n_eau_1":"AVM0054","n_eau_2":"054","nature":"CI","capacite":20,"geo_point_2d":{"lon":2.769769556262309,"lat":43.44667259462652},"gdb_archive_oid":11}},{"type":"Feature","geometry":{"coordinates":[2.826277451413541,43.47777529209324],"type":"Point"},"properties":{"n_eau_1":"AVA0061","n_eau_2":"061","nature":"CI","capacite":20,"geo_point_2d":{"lon":2.826277451413541,"lat":43.47777529209324},"gdb_archive_oid":14}},{"type":"Feature","geometry":{"coordinates":[2.8488045198511496,43.48084425318606],"type":"Point"},"properties":{"n_eau_1":"AVA0496","n_eau_2":"496","nature":"CI","capacite":30,"geo_point_2d":{"lon":2.8488045198511496,"lat":43.48084425318606},"gdb_archive_oid":18}},{"type":"Feature","geometry":{"coordinates":[2.877319939436807,43.40361480096958],"type":"Point"},"properties":{"n_eau_1":"AVV0326","n_eau_2":"326","nature":"CI","capacite":20,"geo_point_2d":{"lon":2.877319939436807,"lat":43.40361480096958},"gdb_archive_oid":21}},{"type":"Feature","geometry":{"coordinates":[2.895513787472892,43.50336228728673],"type":"Point"},"properties":{"n_eau_1":"AVA0163","n_eau_2":"163","nature":"CI","capacite":20,"geo_point_2d":{"lon":2.895513787472892,"lat":43.50336228728673},"gdb_archive_oid":24}},{"type":"Feature","geometry":{"coordinates":[3.0962432146455576,43.74635058171011],"type":"Point"},"properties":{"n_eau_1":"CAM0101","n_eau_2":"101","nature":"CI","capacite":30,"geo_point_2d":{"lon":3.0962432146455576,"lat":43.74635058171011},"gdb_archive_oid":30}},{"type":"Feature","geometry":{"coordinates":[3.095548523132345,43.77744811605897],"type":"Point"},"properties":{"n_eau_1":"CAM0103","n_eau_2":"103","nature":"CI","capacite":20,"geo_point_2d":{"lon":3.095548523132345,"lat":43.77744811605897},"gdb_archive_oid":31}},{"type":"Feature","geometry":{"coordinates":[3.1646956924325633,43.78212509987729],"type":"Point"},"properties":{"n_eau_1":"EON0112","n_eau_2":"112","nature":"CI","capacite":20,"geo_point_2d":{"lon":3.1646956924325633,"lat":43.78212509987729},"gdb_archive_oid":35}},{"type":"Feature","geometry":{"coordinates":[3.286624150194345,43.60510751769149],"type":"Point"},"properties":{"n_eau_1":"AVF0001","n_eau_2":"001","nature":"CI","capacite":50,"geo_point_2d":{"lon":3.286624150194345,"lat":43.60510751769149},"gdb_archive_oid":39}},{"type":"Feature","geometry":{"coordinates":[2.6547988357219636,43.63794482117874],"type":"Point"},"properties":{"n_eau_1":"CAS0006","n_eau_2":"006","nature":"RE","capacite":null,"geo_point_2d":{"lon":2.6547988357219636,"lat":43.63794482117874},"gdb_archive_oid":47}},{"type":"Feature","geometry":{"coordinates":[2.73336649857249,43.42113809641785],"type":"Point"},"properties":{"n_eau_1":"AVM0049","n_eau_2":"049","nature":"RE","capacite":null,"geo_point_2d":{"lon":2.73336649857249,"lat":43.42113809641785},"gdb_archive_oid":50}},{"type":"Feature","geometry":{"coordinates":[2.7397782835460194,43.566157190644255],"type":"Point"},"properties":{"n_eau_1":"CAS0081","n_eau_2":"081","nature":"RE","capacite":null,"geo_point_2d":{"lon":2.7397782835460194,"lat":43.566157190644255},"gdb_archive_oid":52}},{"type":"Feature","geometry":{"coordinates":[2.7871763698568244,43.440847595090936],"type":"Point"},"properties":{"n_eau_1":"AVM0055","n_eau_2":"055","nature":"RE","capacite":null,"geo_point_2d":{"lon":2.7871763698568244,"lat":43.440847595090936},"gdb_archive_oid":56}},{"type":"Feature","geometry":{"coordinates":[2.868342646405558,43.48778597969437],"type":"Point"},"properties":{"n_eau_1":"AVA0064","n_eau_2":"064","nature":"RE","capacite":null,"geo_point_2d":{"lon":2.868342646405558,"lat":43.48778597969437},"gdb_archive_oid":61}},{"type":"Feature","geometry":{"coordinates":[2.9433600183424815,43.53771115879665],"type":"Point"},"properties":{"n_eau_1":"AVA0166","n_eau_2":"166","nature":"RE","capacite":null,"geo_point_2d":{"lon":2.9433600183424815,"lat":43.53771115879665},"gdb_archive_oid":67}},{"type":"Feature","geometry":{"coordinates":[3.0404426815357977,43.60912063029566],"type":"Point"},"properties":{"n_eau_1":"CAO0018","n_eau_2":"018","nature":"RE","capacite":null,"geo_point_2d":{"lon":3.0404426815357977,"lat":43.60912063029566},"gdb_archive_oid":70}},{"type":"Feature","geometry":{"coordinates":[3.396009682330934,43.6062204049736],"type":"Point"},"properties":{"n_eau_1":"SAL0004","n_eau_2":"004","nature":"RE","capacite":null,"geo_point_2d":{"lon":3.396009682330934,"lat":43.6062204049736},"gdb_archive_oid":76}},{"type":"Feature","geometry":{"coordinates":[3.5855275206422186,43.84998677176325],"type":"Point"},"properties":{"n_eau_1":"LAR0142","n_eau_2":"142","nature":"RE","capacite":null,"geo_point_2d":{"lon":3.5855275206422186,"lat":43.84998677176325},"gdb_archive_oid":79}},{"type":"Feature","geometry":{"coordinates":[3.9915208970691927,43.74766936390125],"type":"Point"},"properties":{"n_eau_1":"MOE0250","n_eau_2":"250","nature":"RE","capacite":null,"geo_point_2d":{"lon":3.9915208970691927,"lat":43.74766936390125},"gdb_archive_oid":84}},{"type":"Feature","geometry":{"coordinates":[2.576776256419817,43.374456667089675],"type":"Point"},"properties":{"n_eau_1":"AVM0270","n_eau_2":"270","nature":"CI","capacite":25,"geo_point_2d":{"lon":2.576776256419817,"lat":43.374456667089675},"gdb_archive_oid":88}},{"type":"Feature","geometry":{"coordinates":[2.7025892533955944,43.34067130408414],"type":"Point"},"properties":{"n_eau_1":"AVV0469","n_eau_2":"469","nature":"CI","capacite":35,"geo_point_2d":{"lon":2.7025892533955944,"lat":43.34067130408414},"gdb_archive_oid":100}},{"type":"Feature","geometry":{"coordinates":[2.686151079824715,43.382467929538706],"type":"Point"},"properties":{"n_eau_1":"AVM0487","n_eau_2":"487","nature":"CI","capacite":30,"geo_point_2d":{"lon":2.686151079824715,"lat":43.382467929538706},"gdb_archive_oid":102}},{"type":"Feature","geometry":{"coordinates":[2.707505468238601,43.36995849408491],"type":"Point"},"properties":{"n_eau_1":"AVV0470","n_eau_2":"470","nature":"CI","capacite":40,"geo_point_2d":{"lon":2.707505468238601,"lat":43.36995849408491},"gdb_archive_oid":103}},{"type":"Feature","geometry":{"coordinates":[2.9511963287323884,43.479954959737256],"type":"Point"},"properties":{"n_eau_1":"AVA0521","n_eau_2":"521","nature":"CI","capacite":40,"geo_point_2d":{"lon":2.9511963287323884,"lat":43.479954959737256},"gdb_archive_oid":104}},{"type":"Feature","geometry":{"coordinates":[2.7203475178682646,43.49743850788589],"type":"Point"},"properties":{"n_eau_1":"CAO0461","n_eau_2":"461","nature":"CI","capacite":45,"geo_point_2d":{"lon":2.7203475178682646,"lat":43.49743850788589},"gdb_archive_oid":107}},{"type":"Feature","geometry":{"coordinates":[2.735591118671077,43.416549019109844],"type":"Point"},"properties":{"n_eau_1":"AVM0489","n_eau_2":"489","nature":"CI","capacite":40,"geo_point_2d":{"lon":2.735591118671077,"lat":43.416549019109844},"gdb_archive_oid":111}},{"type":"Feature","geometry":{"coordinates":[2.7764856661600494,43.283636388126745],"type":"Point"},"properties":{"n_eau_1":"AVV0217","n_eau_2":"217","nature":"CI","capacite":25,"geo_point_2d":{"lon":2.7764856661600494,"lat":43.283636388126745},"gdb_archive_oid":113}},{"type":"Feature","geometry":{"coordinates":[2.7678495914865504,43.58266095517602],"type":"Point"},"properties":{"n_eau_1":"CAS0459","n_eau_2":"459","nature":"CI","capacite":45,"geo_point_2d":{"lon":2.7678495914865504,"lat":43.58266095517602},"gdb_archive_oid":115}},{"type":"Feature","geometry":{"coordinates":[2.8480893164109355,43.460500526513165],"type":"Point"},"properties":{"n_eau_1":"AVM0494","n_eau_2":"494","nature":"CI","capacite":30,"geo_point_2d":{"lon":2.8480893164109355,"lat":43.460500526513165},"gdb_archive_oid":133}},{"type":"Feature","geometry":{"coordinates":[2.8873198973952334,43.49269800943439],"type":"Point"},"properties":{"n_eau_1":"AVA0563","n_eau_2":"563","nature":"CI","capacite":30,"geo_point_2d":{"lon":2.8873198973952334,"lat":43.49269800943439},"gdb_archive_oid":145}},{"type":"Feature","geometry":{"coordinates":[2.893088235376912,43.53536007945771],"type":"Point"},"properties":{"n_eau_1":"AVA0450","n_eau_2":"450","nature":"CI","capacite":25,"geo_point_2d":{"lon":2.893088235376912,"lat":43.53536007945771},"gdb_archive_oid":147}},{"type":"Feature","geometry":{"coordinates":[2.8877152799575874,43.63730145628986],"type":"Point"},"properties":{"n_eau_1":"CAS0283","n_eau_2":"283","nature":"CI","capacite":20,"geo_point_2d":{"lon":2.8877152799575874,"lat":43.63730145628986},"gdb_archive_oid":153}},{"type":"Feature","geometry":{"coordinates":[2.9299297545311984,43.51542737350389],"type":"Point"},"properties":{"n_eau_1":"AVA0516","n_eau_2":"516","nature":"CI","capacite":35,"geo_point_2d":{"lon":2.9299297545311984,"lat":43.51542737350389},"gdb_archive_oid":156}},{"type":"Feature","geometry":{"coordinates":[2.966647459769038,43.44254102042661],"type":"Point"},"properties":{"n_eau_1":"AVA0520","n_eau_2":"520","nature":"CI","capacite":40,"geo_point_2d":{"lon":2.966647459769038,"lat":43.44254102042661},"gdb_archive_oid":160}},{"type":"Feature","geometry":{"coordinates":[2.997253590557632,43.41493876326944],"type":"Point"},"properties":{"n_eau_1":"AVC0505","n_eau_2":"505","nature":"CI","capacite":55,"geo_point_2d":{"lon":2.997253590557632,"lat":43.41493876326944},"gdb_archive_oid":164}},{"type":"Feature","geometry":{"coordinates":[3.0513870391799056,43.51572894104151],"type":"Point"},"properties":{"n_eau_1":"AVF0480","n_eau_2":"480","nature":"CI","capacite":40,"geo_point_2d":{"lon":3.0513870391799056,"lat":43.51572894104151},"gdb_archive_oid":171}},{"type":"Feature","geometry":{"coordinates":[3.0400032538540414,43.63118575679118],"type":"Point"},"properties":{"n_eau_1":"CAM0523","n_eau_2":"523","nature":"CI","capacite":20,"geo_point_2d":{"lon":3.0400032538540414,"lat":43.63118575679118},"gdb_archive_oid":172}},{"type":"Feature","geometry":{"coordinates":[3.1902930724174263,43.60528188153925],"type":"Point"},"properties":{"n_eau_1":"AVF0122","n_eau_2":"122","nature":"CI","capacite":20,"geo_point_2d":{"lon":3.1902930724174263,"lat":43.60528188153925},"gdb_archive_oid":183}},{"type":"Feature","geometry":{"coordinates":[3.267158101653607,43.76929297604142],"type":"Point"},"properties":{"n_eau_1":"EON0409","n_eau_2":"409","nature":"CI","capacite":30,"geo_point_2d":{"lon":3.267158101653607,"lat":43.76929297604142},"gdb_archive_oid":187}},{"type":"Feature","geometry":{"coordinates":[3.4424108096619643,43.72346968476556],"type":"Point"},"properties":{"n_eau_1":"LOE0435","n_eau_2":"435","nature":"CI","capacite":30,"geo_point_2d":{"lon":3.4424108096619643,"lat":43.72346968476556},"gdb_archive_oid":196}},{"type":"Feature","geometry":{"coordinates":[3.5443968026369044,43.55439269551312],"type":"Point"},"properties":{"n_eau_1":"AUO0177","n_eau_2":"177","nature":"CI","capacite":20,"geo_point_2d":{"lon":3.5443968026369044,"lat":43.55439269551312},"gdb_archive_oid":198}},{"type":"Feature","geometry":{"coordinates":[3.6763036721540474,43.60939408638929],"type":"Point"},"properties":{"n_eau_1":"AUE0388","n_eau_2":"388","nature":"CI","capacite":30,"geo_point_2d":{"lon":3.6763036721540474,"lat":43.60939408638929},"gdb_archive_oid":204}},{"type":"Feature","geometry":{"coordinates":[3.660917183816445,43.67948549785868],"type":"Point"},"properties":{"n_eau_1":"HES0180","n_eau_2":"180","nature":"CI","capacite":30,"geo_point_2d":{"lon":3.660917183816445,"lat":43.67948549785868},"gdb_archive_oid":205}},{"type":"Feature","geometry":{"coordinates":[3.754289213554027,43.47006067032835],"type":"Point"},"properties":{"n_eau_1":"GAR0191","n_eau_2":"191","nature":"CI","capacite":30,"geo_point_2d":{"lon":3.754289213554027,"lat":43.47006067032835},"gdb_archive_oid":211}},{"type":"Feature","geometry":{"coordinates":[3.8740566909496623,43.66328964641884],"type":"Point"},"properties":{"n_eau_1":"MOC0269","n_eau_2":"269","nature":"CI","capacite":20,"geo_point_2d":{"lon":3.8740566909496623,"lat":43.66328964641884},"gdb_archive_oid":214}},{"type":"Feature","geometry":{"coordinates":[3.8805866899342583,43.68555617011513],"type":"Point"},"properties":{"n_eau_1":"MOC0230","n_eau_2":"230","nature":"CI","capacite":30,"geo_point_2d":{"lon":3.8805866899342583,"lat":43.68555617011513},"gdb_archive_oid":217}},{"type":"Feature","geometry":{"coordinates":[3.7516921464174784,43.494948031201886],"type":"Point"},"properties":{"n_eau_1":"GAR0203","n_eau_2":"203","nature":"CI","capacite":30,"geo_point_2d":{"lon":3.7516921464174784,"lat":43.494948031201886},"gdb_archive_oid":231}},{"type":"Feature","geometry":{"coordinates":[2.9114311746838344,43.35155865222611],"type":"Point"},"properties":{"n_eau_1":"AVC0455","n_eau_2":"455","nature":"CI","capacite":55,"geo_point_2d":{"lon":2.9114311746838344,"lat":43.35155865222611},"gdb_archive_oid":233}},{"type":"Feature","geometry":{"coordinates":[2.7673594254726512,43.38535354724744],"type":"Point"},"properties":{"n_eau_1":"AVV0045","n_eau_2":"045","nature":"CI","capacite":30,"geo_point_2d":{"lon":2.7673594254726512,"lat":43.38535354724744},"gdb_archive_oid":243}},{"type":"Feature","geometry":{"coordinates":[2.8377106745626954,43.552212564039294],"type":"Point"},"properties":{"n_eau_1":"CAO0073","n_eau_2":"073","nature":"CI","capacite":30,"geo_point_2d":{"lon":2.8377106745626954,"lat":43.552212564039294},"gdb_archive_oid":250}},{"type":"Feature","geometry":{"coordinates":[2.837266543632378,43.5448417359564],"type":"Point"},"properties":{"n_eau_1":"CAO0075","n_eau_2":"075","nature":"CI","capacite":25,"geo_point_2d":{"lon":2.837266543632378,"lat":43.5448417359564},"gdb_archive_oid":251}},{"type":"Feature","geometry":{"coordinates":[2.862345355399207,43.49581268097314],"type":"Point"},"properties":{"n_eau_1":"AVA0276","n_eau_2":"276","nature":"CI","capacite":20,"geo_point_2d":{"lon":2.862345355399207,"lat":43.49581268097314},"gdb_archive_oid":253}},{"type":"Feature","geometry":{"coordinates":[2.9015420816566073,43.44784541839059],"type":"Point"},"properties":{"n_eau_1":"AVV0288","n_eau_2":"288","nature":"CI","capacite":20,"geo_point_2d":{"lon":2.9015420816566073,"lat":43.44784541839059},"gdb_archive_oid":257}},{"type":"Feature","geometry":{"coordinates":[2.8846804879477403,43.52463920132002],"type":"Point"},"properties":{"n_eau_1":"AVA0317","n_eau_2":"317","nature":"CI","capacite":35,"geo_point_2d":{"lon":2.8846804879477403,"lat":43.52463920132002},"gdb_archive_oid":259}},{"type":"Feature","geometry":{"coordinates":[3.0280611902623162,43.613190632929275],"type":"Point"},"properties":{"n_eau_1":"CAO0279","n_eau_2":"279","nature":"CI","capacite":20,"geo_point_2d":{"lon":3.0280611902623162,"lat":43.613190632929275},"gdb_archive_oid":272}},{"type":"Feature","geometry":{"coordinates":[3.0400833487741896,43.51797632126694],"type":"Point"},"properties":{"n_eau_1":"AVF0164","n_eau_2":"164","nature":"CI","capacite":30,"geo_point_2d":{"lon":3.0400833487741896,"lat":43.51797632126694},"gdb_archive_oid":274}},{"type":"Feature","geometry":{"coordinates":[3.0404050832729355,43.6310480331489],"type":"Point"},"properties":{"n_eau_1":"CAM0314","n_eau_2":"314","nature":"CI","capacite":20,"geo_point_2d":{"lon":3.0404050832729355,"lat":43.6310480331489},"gdb_archive_oid":275}},{"type":"Feature","geometry":{"coordinates":[3.8739684096039464,43.67255986217051],"type":"Point"},"properties":{"n_eau_1":"MOC0232","n_eau_2":"232","nature":"CI","capacite":30,"geo_point_2d":{"lon":3.8739684096039464,"lat":43.67255986217051},"gdb_archive_oid":319}},{"type":"Feature","geometry":{"coordinates":[3.9122184275150116,43.740946053360965],"type":"Point"},"properties":{"n_eau_1":"MOE0245","n_eau_2":"245","nature":"CI","capacite":30,"geo_point_2d":{"lon":3.9122184275150116,"lat":43.740946053360965},"gdb_archive_oid":322}},{"type":"Feature","geometry":{"coordinates":[2.7254826128185408,43.407449867824496],"type":"Point"},"properties":{"n_eau_1":"AVM0490","n_eau_2":"490","nature":"CI","capacite":55,"geo_point_2d":{"lon":2.7254826128185408,"lat":43.407449867824496},"gdb_archive_oid":328}},{"type":"Feature","geometry":{"coordinates":[2.6826396236826002,43.39358718518158],"type":"Point"},"properties":{"n_eau_1":"AVM0089","n_eau_2":"089","nature":"CI","capacite":20,"geo_point_2d":{"lon":2.6826396236826002,"lat":43.39358718518158},"gdb_archive_oid":2}},{"type":"Feature","geometry":{"coordinates":[2.77814845718974,43.44399035003347],"type":"Point"},"properties":{"n_eau_1":"AVM0053","n_eau_2":"053","nature":"CI","capacite":20,"geo_point_2d":{"lon":2.77814845718974,"lat":43.44399035003347},"gdb_archive_oid":12}},{"type":"Feature","geometry":{"coordinates":[2.873871525325089,43.458619001651634],"type":"Point"},"properties":{"n_eau_1":"AVV0551","n_eau_2":"551","nature":"CI","capacite":30,"geo_point_2d":{"lon":2.873871525325089,"lat":43.458619001651634},"gdb_archive_oid":22}},{"type":"Feature","geometry":{"coordinates":[2.9416945599095317,43.652706908040045],"type":"Point"},"properties":{"n_eau_1":"CAS0010","n_eau_2":"010","nature":"CI","capacite":50,"geo_point_2d":{"lon":2.9416945599095317,"lat":43.652706908040045},"gdb_archive_oid":27}},{"type":"Feature","geometry":{"coordinates":[3.050843753900315,43.797818304474035],"type":"Point"},"properties":{"n_eau_1":"CAM0211","n_eau_2":"211","nature":"CI","capacite":20,"geo_point_2d":{"lon":3.050843753900315,"lat":43.797818304474035},"gdb_archive_oid":28}},{"type":"Feature","geometry":{"coordinates":[3.078604066097805,43.77561021926057],"type":"Point"},"properties":{"n_eau_1":"CAM0102","n_eau_2":"102","nature":"CI","capacite":20,"geo_point_2d":{"lon":3.078604066097805,"lat":43.77561021926057},"gdb_archive_oid":29}},{"type":"Feature","geometry":{"coordinates":[2.6008425431494455,43.34934585224096],"type":"Point"},"properties":{"n_eau_1":"AVM0271","n_eau_2":"271","nature":"RE","capacite":null,"geo_point_2d":{"lon":2.6008425431494455,"lat":43.34934585224096},"gdb_archive_oid":46}},{"type":"Feature","geometry":{"coordinates":[2.715036832213492,43.57282430880332],"type":"Point"},"properties":{"n_eau_1":"CAS0421","n_eau_2":"421","nature":"RE","capacite":null,"geo_point_2d":{"lon":2.715036832213492,"lat":43.57282430880332},"gdb_archive_oid":49}},{"type":"Feature","geometry":{"coordinates":[2.7405058195894467,43.56824622330573],"type":"Point"},"properties":{"n_eau_1":"CAS0080","n_eau_2":"080","nature":"RE","capacite":20,"geo_point_2d":{"lon":2.7405058195894467,"lat":43.56824622330573},"gdb_archive_oid":51}},{"type":"Feature","geometry":{"coordinates":[2.778473898188079,43.5504497035599],"type":"Point"},"properties":{"n_eau_1":"CAS0071","n_eau_2":"071","nature":"RE","capacite":null,"geo_point_2d":{"lon":2.778473898188079,"lat":43.5504497035599},"gdb_archive_oid":55}},{"type":"Feature","geometry":{"coordinates":[2.8462317363905387,43.48571971152716],"type":"Point"},"properties":{"n_eau_1":"AVA0063","n_eau_2":"063","nature":"RE","capacite":null,"geo_point_2d":{"lon":2.8462317363905387,"lat":43.48571971152716},"gdb_archive_oid":59}},{"type":"Feature","geometry":{"coordinates":[2.9033389156290115,43.49130210032586],"type":"Point"},"properties":{"n_eau_1":"AVA0161","n_eau_2":"161","nature":"RE","capacite":null,"geo_point_2d":{"lon":2.9033389156290115,"lat":43.49130210032586},"gdb_archive_oid":64}},{"type":"Feature","geometry":{"coordinates":[2.925533669856112,43.612657825875516],"type":"Point"},"properties":{"n_eau_1":"CAS0016","n_eau_2":"016","nature":"RE","capacite":null,"geo_point_2d":{"lon":2.925533669856112,"lat":43.612657825875516},"gdb_archive_oid":66}},{"type":"Feature","geometry":{"coordinates":[2.969224253327782,43.645786439575055],"type":"Point"},"properties":{"n_eau_1":"CAX0013","n_eau_2":"013","nature":"RE","capacite":null,"geo_point_2d":{"lon":2.969224253327782,"lat":43.645786439575055},"gdb_archive_oid":69}},{"type":"Feature","geometry":{"coordinates":[3.3953996339389723,43.75985997401393],"type":"Point"},"properties":{"n_eau_1":"LOE0369","n_eau_2":"369","nature":"RE","capacite":null,"geo_point_2d":{"lon":3.3953996339389723,"lat":43.75985997401393},"gdb_archive_oid":77}},{"type":"Feature","geometry":{"coordinates":[3.5999870673534167,43.61544489923995],"type":"Point"},"properties":{"n_eau_1":"AUO0344","n_eau_2":"344","nature":"RE","capacite":null,"geo_point_2d":{"lon":3.5999870673534167,"lat":43.61544489923995},"gdb_archive_oid":80}},{"type":"Feature","geometry":{"coordinates":[3.6996657955913363,43.578418730176736],"type":"Point"},"properties":{"n_eau_1":"AUE0185","n_eau_2":"185","nature":"RE","capacite":null,"geo_point_2d":{"lon":3.6996657955913363,"lat":43.578418730176736},"gdb_archive_oid":82}},{"type":"Feature","geometry":{"coordinates":[2.5742036471036913,43.3391991356725],"type":"Point"},"properties":{"n_eau_1":"AVM0443","n_eau_2":"443","nature":"CI","capacite":35,"geo_point_2d":{"lon":2.5742036471036913,"lat":43.3391991356725},"gdb_archive_oid":86}},{"type":"Feature","geometry":{"coordinates":[2.5921053535679928,43.352836037112596],"type":"Point"},"properties":{"n_eau_1":"AVM0437","n_eau_2":"437","nature":"CI","capacite":30,"geo_point_2d":{"lon":2.5921053535679928,"lat":43.352836037112596},"gdb_archive_oid":89}},{"type":"Feature","geometry":{"coordinates":[2.588428626245728,43.3877934091403],"type":"Point"},"properties":{"n_eau_1":"AVM0463","n_eau_2":"463","nature":"CI","capacite":40,"geo_point_2d":{"lon":2.588428626245728,"lat":43.3877934091403},"gdb_archive_oid":90}},{"type":"Feature","geometry":{"coordinates":[2.639715753933387,43.37594850717987],"type":"Point"},"properties":{"n_eau_1":"AVM0485","n_eau_2":"485","nature":"CI","capacite":35,"geo_point_2d":{"lon":2.639715753933387,"lat":43.37594850717987},"gdb_archive_oid":95}},{"type":"Feature","geometry":{"coordinates":[2.6439974330641647,43.433384497679356],"type":"Point"},"properties":{"n_eau_1":"AVM0504","n_eau_2":"504","nature":"CI","capacite":50,"geo_point_2d":{"lon":2.6439974330641647,"lat":43.433384497679356},"gdb_archive_oid":97}},{"type":"Feature","geometry":{"coordinates":[2.728871944931179,43.50605709298459],"type":"Point"},"properties":{"n_eau_1":"CAO0498","n_eau_2":"498","nature":"CI","capacite":30,"geo_point_2d":{"lon":2.728871944931179,"lat":43.50605709298459},"gdb_archive_oid":106}},{"type":"Feature","geometry":{"coordinates":[2.746410765591584,43.368024137913515],"type":"Point"},"properties":{"n_eau_1":"AVV0429","n_eau_2":"429","nature":"CI","capacite":30,"geo_point_2d":{"lon":2.746410765591584,"lat":43.368024137913515},"gdb_archive_oid":108}},{"type":"Feature","geometry":{"coordinates":[2.7316262112984897,43.42127894834731],"type":"Point"},"properties":{"n_eau_1":"AVM0430","n_eau_2":"430","nature":"CI","capacite":25,"geo_point_2d":{"lon":2.7316262112984897,"lat":43.42127894834731},"gdb_archive_oid":110}},{"type":"Feature","geometry":{"coordinates":[2.7723023537743177,43.2607821042751],"type":"Point"},"properties":{"n_eau_1":"AVV0444","n_eau_2":"444","nature":"CI","capacite":30,"geo_point_2d":{"lon":2.7723023537743177,"lat":43.2607821042751},"gdb_archive_oid":112}},{"type":"Feature","geometry":{"coordinates":[2.776436492494126,43.362958234547534],"type":"Point"},"properties":{"n_eau_1":"AVV0473","n_eau_2":"473","nature":"CI","capacite":30,"geo_point_2d":{"lon":2.776436492494126,"lat":43.362958234547534},"gdb_archive_oid":114}},{"type":"Feature","geometry":{"coordinates":[2.8283522232560965,43.41062191605791],"type":"Point"},"properties":{"n_eau_1":"AVV0476","n_eau_2":"476","nature":"CI","capacite":30,"geo_point_2d":{"lon":2.8283522232560965,"lat":43.41062191605791},"gdb_archive_oid":125}},{"type":"Feature","geometry":{"coordinates":[2.8518608858259515,43.52241139859613],"type":"Point"},"properties":{"n_eau_1":"AVA0451","n_eau_2":"451","nature":"CI","capacite":30,"geo_point_2d":{"lon":2.8518608858259515,"lat":43.52241139859613},"gdb_archive_oid":136}},{"type":"Feature","geometry":{"coordinates":[2.8767665020223983,43.38643499124226],"type":"Point"},"properties":{"n_eau_1":"AVC0510","n_eau_2":"510","nature":"CI","capacite":40,"geo_point_2d":{"lon":2.8767665020223983,"lat":43.38643499124226},"gdb_archive_oid":138}},{"type":"Feature","geometry":{"coordinates":[2.8909085951730384,43.356033189852226],"type":"Point"},"properties":{"n_eau_1":"AVC0465","n_eau_2":"465","nature":"CI","capacite":50,"geo_point_2d":{"lon":2.8909085951730384,"lat":43.356033189852226},"gdb_archive_oid":141}},{"type":"Feature","geometry":{"coordinates":[2.922619025477536,43.36914793626815],"type":"Point"},"properties":{"n_eau_1":"AVC0176","n_eau_2":"176","nature":"CI","capacite":30,"geo_point_2d":{"lon":2.922619025477536,"lat":43.36914793626815},"gdb_archive_oid":148}},{"type":"Feature","geometry":{"coordinates":[2.9273255759207375,43.54464428629914],"type":"Point"},"properties":{"n_eau_1":"AVA0169","n_eau_2":"169","nature":"CI","capacite":20,"geo_point_2d":{"lon":2.9273255759207375,"lat":43.54464428629914},"gdb_archive_oid":150}},{"type":"Feature","geometry":{"coordinates":[2.9480949912992993,43.39374277987464],"type":"Point"},"properties":{"n_eau_1":"AVC0509","n_eau_2":"509","nature":"CI","capacite":30,"geo_point_2d":{"lon":2.9480949912992993,"lat":43.39374277987464},"gdb_archive_oid":151}},{"type":"Feature","geometry":{"coordinates":[2.9368833434718553,43.472654143537056],"type":"Point"},"properties":{"n_eau_1":"AVA0531","n_eau_2":"531","nature":"CI","capacite":40,"geo_point_2d":{"lon":2.9368833434718553,"lat":43.472654143537056},"gdb_archive_oid":154}},{"type":"Feature","geometry":{"coordinates":[2.9399118136335507,43.534920983219365],"type":"Point"},"properties":{"n_eau_1":"AVA0448","n_eau_2":"448","nature":"CI","capacite":35,"geo_point_2d":{"lon":2.9399118136335507,"lat":43.534920983219365},"gdb_archive_oid":158}},{"type":"Feature","geometry":{"coordinates":[3.6566739733689455,43.803059729235066],"type":"Point"},"properties":{"n_eau_1":"HEC0552","n_eau_2":"552","nature":"CI","capacite":30,"geo_point_2d":{"lon":3.6566739733689455,"lat":43.803059729235066},"gdb_archive_oid":161}},{"type":"Feature","geometry":{"coordinates":[2.9618997126985964,43.486132933668195],"type":"Point"},"properties":{"n_eau_1":"AVA0535","n_eau_2":"535","nature":"CI","capacite":40,"geo_point_2d":{"lon":2.9618997126985964,"lat":43.486132933668195},"gdb_archive_oid":162}},{"type":"Feature","geometry":{"coordinates":[3.179295144701081,43.57202523803587],"type":"Point"},"properties":{"n_eau_1":"AVF0124","n_eau_2":"124","nature":"CI","capacite":20,"geo_point_2d":{"lon":3.179295144701081,"lat":43.57202523803587},"gdb_archive_oid":182}},{"type":"Feature","geometry":{"coordinates":[3.3441360389309085,43.55489587161636],"type":"Point"},"properties":{"n_eau_1":"AVF0179","n_eau_2":"179","nature":"CI","capacite":20,"geo_point_2d":{"lon":3.3441360389309085,"lat":43.55489587161636},"gdb_archive_oid":191}},{"type":"Feature","geometry":{"coordinates":[3.703403370271514,43.47724297349045],"type":"Point"},"properties":{"n_eau_1":"GAR0197","n_eau_2":"197","nature":"CI","capacite":25,"geo_point_2d":{"lon":3.703403370271514,"lat":43.47724297349045},"gdb_archive_oid":207}},{"type":"Feature","geometry":{"coordinates":[3.7397337610377424,43.45948845498756],"type":"Point"},"properties":{"n_eau_1":"GAR0391","n_eau_2":"391","nature":"CI","capacite":30,"geo_point_2d":{"lon":3.7397337610377424,"lat":43.45948845498756},"gdb_archive_oid":209}},{"type":"Feature","geometry":{"coordinates":[3.784785221619886,43.52261502909149],"type":"Point"},"properties":{"n_eau_1":"GAR0440","n_eau_2":"440","nature":"CI","capacite":30,"geo_point_2d":{"lon":3.784785221619886,"lat":43.52261502909149},"gdb_archive_oid":212}},{"type":"Feature","geometry":{"coordinates":[3.88311048975686,43.67438117720459],"type":"Point"},"properties":{"n_eau_1":"MOC0233","n_eau_2":"233","nature":"CI","capacite":30,"geo_point_2d":{"lon":3.88311048975686,"lat":43.67438117720459},"gdb_archive_oid":216}},{"type":"Feature","geometry":{"coordinates":[3.8976116674496613,43.71103369450992],"type":"Point"},"properties":{"n_eau_1":"MOC0227","n_eau_2":"227","nature":"CI","capacite":30,"geo_point_2d":{"lon":3.8976116674496613,"lat":43.71103369450992},"gdb_archive_oid":218}},{"type":"Feature","geometry":{"coordinates":[3.9025620635289826,43.731353132469835],"type":"Point"},"properties":{"n_eau_1":"MOC0225","n_eau_2":"225","nature":"CI","capacite":30,"geo_point_2d":{"lon":3.9025620635289826,"lat":43.731353132469835},"gdb_archive_oid":222}},{"type":"Feature","geometry":{"coordinates":[4.125505235981445,43.72413721837379],"type":"Point"},"properties":{"n_eau_1":"PLL0132","n_eau_2":"132","nature":"CI","capacite":20,"geo_point_2d":{"lon":4.125505235981445,"lat":43.72413721837379},"gdb_archive_oid":232}},{"type":"Feature","geometry":{"coordinates":[2.5828013682249433,43.34917468586929],"type":"Point"},"properties":{"n_eau_1":"AVM0313","n_eau_2":"313","nature":"CI","capacite":20,"geo_point_2d":{"lon":2.5828013682249433,"lat":43.34917468586929},"gdb_archive_oid":235}},{"type":"Feature","geometry":{"coordinates":[2.8053693818918832,43.378109964932705],"type":"Point"},"properties":{"n_eau_1":"AVV0425","n_eau_2":"425","nature":"CI","capacite":25,"geo_point_2d":{"lon":2.8053693818918832,"lat":43.378109964932705},"gdb_archive_oid":247}},{"type":"Feature","geometry":{"coordinates":[2.8713409993559704,43.58086663910278],"type":"Point"},"properties":{"n_eau_1":"CAO0275","n_eau_2":"275","nature":"CI","capacite":25,"geo_point_2d":{"lon":2.8713409993559704,"lat":43.58086663910278},"gdb_archive_oid":256}},{"type":"Feature","geometry":{"coordinates":[2.89507321787179,43.51104513257876],"type":"Point"},"properties":{"n_eau_1":"AVA0400","n_eau_2":"400","nature":"CI","capacite":30,"geo_point_2d":{"lon":2.89507321787179,"lat":43.51104513257876},"gdb_archive_oid":258}},{"type":"Feature","geometry":{"coordinates":[2.969594170053868,43.40959877233005],"type":"Point"},"properties":{"n_eau_1":"AVC0285","n_eau_2":"285","nature":"CI","capacite":25,"geo_point_2d":{"lon":2.969594170053868,"lat":43.40959877233005},"gdb_archive_oid":265}},{"type":"Feature","geometry":{"coordinates":[3.1468891001577286,43.63796929470203],"type":"Point"},"properties":{"n_eau_1":"CAM0332","n_eau_2":"332","nature":"CI","capacite":20,"geo_point_2d":{"lon":3.1468891001577286,"lat":43.63796929470203},"gdb_archive_oid":284}},{"type":"Feature","geometry":{"coordinates":[3.193917465990996,43.636251318686234],"type":"Point"},"properties":{"n_eau_1":"AVF0043","n_eau_2":"043","nature":"CI","capacite":20,"geo_point_2d":{"lon":3.193917465990996,"lat":43.636251318686234},"gdb_archive_oid":285}},{"type":"Feature","geometry":{"coordinates":[3.380511153851461,43.749410568771545],"type":"Point"},"properties":{"n_eau_1":"LOE0292","n_eau_2":"292","nature":"CI","capacite":20,"geo_point_2d":{"lon":3.380511153851461,"lat":43.749410568771545},"gdb_archive_oid":291}},{"type":"Feature","geometry":{"coordinates":[3.5259649363155185,43.711283040207825],"type":"Point"},"properties":{"n_eau_1":"LOG0127","n_eau_2":"127","nature":"CI","capacite":20,"geo_point_2d":{"lon":3.5259649363155185,"lat":43.711283040207825},"gdb_archive_oid":296}},{"type":"Feature","geometry":{"coordinates":[3.5780809942651643,43.53292650388191],"type":"Point"},"properties":{"n_eau_1":"AUO0248","n_eau_2":"248","nature":"CI","capacite":30,"geo_point_2d":{"lon":3.5780809942651643,"lat":43.53292650388191},"gdb_archive_oid":299}},{"type":"Feature","geometry":{"coordinates":[3.6154445697250353,43.66016307991834],"type":"Point"},"properties":{"n_eau_1":"HES0335","n_eau_2":"335","nature":"CI","capacite":50,"geo_point_2d":{"lon":3.6154445697250353,"lat":43.66016307991834},"gdb_archive_oid":302}},{"type":"Feature","geometry":{"coordinates":[3.677980105595657,43.65368898337403],"type":"Point"},"properties":{"n_eau_1":"HES0263","n_eau_2":"263","nature":"CI","capacite":30,"geo_point_2d":{"lon":3.677980105595657,"lat":43.65368898337403},"gdb_archive_oid":306}},{"type":"Feature","geometry":{"coordinates":[3.742927295532489,43.50262733192376],"type":"Point"},"properties":{"n_eau_1":"GAR0397","n_eau_2":"397","nature":"CI","capacite":40,"geo_point_2d":{"lon":3.742927295532489,"lat":43.50262733192376},"gdb_archive_oid":309}},{"type":"Feature","geometry":{"coordinates":[3.7620753851432327,43.51376611332369],"type":"Point"},"properties":{"n_eau_1":"GAR0207","n_eau_2":"207","nature":"CI","capacite":20,"geo_point_2d":{"lon":3.7620753851432327,"lat":43.51376611332369},"gdb_archive_oid":313}},{"type":"Feature","geometry":{"coordinates":[3.758970401244086,43.693530882138134],"type":"Point"},"properties":{"n_eau_1":"HES0261","n_eau_2":"261","nature":"CI","capacite":30,"geo_point_2d":{"lon":3.758970401244086,"lat":43.693530882138134},"gdb_archive_oid":314}},{"type":"Feature","geometry":{"coordinates":[4.118347415775088,43.71114702296266],"type":"Point"},"properties":{"n_eau_1":"PLL0131","n_eau_2":"131","nature":"CI","capacite":20,"geo_point_2d":{"lon":4.118347415775088,"lat":43.71114702296266},"gdb_archive_oid":323}},{"type":"Feature","geometry":{"coordinates":[3.2336541981178746,43.786269719982286],"type":"Point"},"properties":{"n_eau_1":"EON0118","n_eau_2":"118","nature":"CI","capacite":null,"geo_point_2d":{"lon":3.2336541981178746,"lat":43.786269719982286},"gdb_archive_oid":326}},{"type":"Feature","geometry":{"coordinates":[2.677211525959434,43.426284595165846],"type":"Point"},"properties":{"n_eau_1":"AVM0091","n_eau_2":"091","nature":"CI","capacite":20,"geo_point_2d":{"lon":2.677211525959434,"lat":43.426284595165846},"gdb_archive_oid":1}},{"type":"Feature","geometry":{"coordinates":[2.6825631217907713,43.460089239142405],"type":"Point"},"properties":{"n_eau_1":"AVM0094","n_eau_2":"094","nature":"CI","capacite":40,"geo_point_2d":{"lon":2.6825631217907713,"lat":43.460089239142405},"gdb_archive_oid":4}},{"type":"Feature","geometry":{"coordinates":[2.737631834933523,43.51237673245799],"type":"Point"},"properties":{"n_eau_1":"CAO0067","n_eau_2":"067","nature":"CI","capacite":20,"geo_point_2d":{"lon":2.737631834933523,"lat":43.51237673245799},"gdb_archive_oid":9}},{"type":"Feature","geometry":{"coordinates":[2.777965339670169,43.51857888068559],"type":"Point"},"properties":{"n_eau_1":"CAO0068","n_eau_2":"068","nature":"CI","capacite":20,"geo_point_2d":{"lon":2.777965339670169,"lat":43.51857888068559},"gdb_archive_oid":13}},{"type":"Feature","geometry":{"coordinates":[2.812576985915069,43.575781991966075],"type":"Point"},"properties":{"n_eau_1":"CAS0500","n_eau_2":"500","nature":"CI","capacite":30,"geo_point_2d":{"lon":2.812576985915069,"lat":43.575781991966075},"gdb_archive_oid":15}},{"type":"Feature","geometry":{"coordinates":[2.83789092156963,43.599036213341805],"type":"Point"},"properties":{"n_eau_1":"CAS0457","n_eau_2":"457","nature":"CI","capacite":30,"geo_point_2d":{"lon":2.83789092156963,"lat":43.599036213341805},"gdb_archive_oid":19}},{"type":"Feature","geometry":{"coordinates":[2.8377535633457867,43.599073724671676],"type":"Point"},"properties":{"n_eau_1":"CAS0458","n_eau_2":"458","nature":"CI","capacite":30,"geo_point_2d":{"lon":2.8377535633457867,"lat":43.599073724671676},"gdb_archive_oid":20}},{"type":"Feature","geometry":{"coordinates":[3.1228950648976936,43.78528266401158],"type":"Point"},"properties":{"n_eau_1":"EON0111","n_eau_2":"111","nature":"CI","capacite":20,"geo_point_2d":{"lon":3.1228950648976936,"lat":43.78528266401158},"gdb_archive_oid":32}},{"type":"Feature","geometry":{"coordinates":[3.1470109783837557,43.637936271487696],"type":"Point"},"properties":{"n_eau_1":"CAM0371","n_eau_2":"371","nature":"CI","capacite":50,"geo_point_2d":{"lon":3.1470109783837557,"lat":43.637936271487696},"gdb_archive_oid":34}},{"type":"Feature","geometry":{"coordinates":[3.166402608161246,43.79584193336059],"type":"Point"},"properties":{"n_eau_1":"EON0113","n_eau_2":"113","nature":"CI","capacite":20,"geo_point_2d":{"lon":3.166402608161246,"lat":43.79584193336059},"gdb_archive_oid":36}},{"type":"Feature","geometry":{"coordinates":[3.4438989883149786,43.7443285255314],"type":"Point"},"properties":{"n_eau_1":"LOE0153","n_eau_2":"153","nature":"CI","capacite":20,"geo_point_2d":{"lon":3.4438989883149786,"lat":43.7443285255314},"gdb_archive_oid":40}},{"type":"Feature","geometry":{"coordinates":[3.534965134326884,43.76345723332577],"type":"Point"},"properties":{"n_eau_1":"LOG0150","n_eau_2":"150","nature":"CI","capacite":30,"geo_point_2d":{"lon":3.534965134326884,"lat":43.76345723332577},"gdb_archive_oid":41}},{"type":"Feature","geometry":{"coordinates":[3.56235313675031,43.80622522791488],"type":"Point"},"properties":{"n_eau_1":"LAR0145","n_eau_2":"145","nature":"CI","capacite":20,"geo_point_2d":{"lon":3.56235313675031,"lat":43.80622522791488},"gdb_archive_oid":42}},{"type":"Feature","geometry":{"coordinates":[3.583019375567939,43.872651550983306],"type":"Point"},"properties":{"n_eau_1":"LAR0141","n_eau_2":"141","nature":"CI","capacite":20,"geo_point_2d":{"lon":3.583019375567939,"lat":43.872651550983306},"gdb_archive_oid":43}},{"type":"Feature","geometry":{"coordinates":[3.728367641087289,43.47084133357113],"type":"Point"},"properties":{"n_eau_1":"GAR0194","n_eau_2":"194","nature":"CI","capacite":20,"geo_point_2d":{"lon":3.728367641087289,"lat":43.47084133357113},"gdb_archive_oid":44}},{"type":"Feature","geometry":{"coordinates":[2.7717295317688406,43.54417441359243],"type":"Point"},"properties":{"n_eau_1":"CAS0070","n_eau_2":"070","nature":"RE","capacite":null,"geo_point_2d":{"lon":2.7717295317688406,"lat":43.54417441359243},"gdb_archive_oid":54}},{"type":"Feature","geometry":{"coordinates":[2.8591788901823434,43.585988970318624],"type":"Point"},"properties":{"n_eau_1":"CAO0083","n_eau_2":"083","nature":"RE","capacite":null,"geo_point_2d":{"lon":2.8591788901823434,"lat":43.585988970318624},"gdb_archive_oid":62}},{"type":"Feature","geometry":{"coordinates":[2.9359374622574403,43.54472922286171],"type":"Point"},"properties":{"n_eau_1":"AVA0168","n_eau_2":"168","nature":"RE","capacite":null,"geo_point_2d":{"lon":2.9359374622574403,"lat":43.54472922286171},"gdb_archive_oid":68}},{"type":"Feature","geometry":{"coordinates":[3.2280113849480387,43.76786522625083],"type":"Point"},"properties":{"n_eau_1":"EON0117","n_eau_2":"117","nature":"RE","capacite":null,"geo_point_2d":{"lon":3.2280113849480387,"lat":43.76786522625083},"gdb_archive_oid":75}},{"type":"Feature","geometry":{"coordinates":[3.426054973045455,43.78079714332043],"type":"Point"},"properties":{"n_eau_1":"LOE0078","n_eau_2":"078","nature":"RE","capacite":null,"geo_point_2d":{"lon":3.426054973045455,"lat":43.78079714332043},"gdb_archive_oid":78}},{"type":"Feature","geometry":{"coordinates":[3.647267091636874,43.59158888198389],"type":"Point"},"properties":{"n_eau_1":"AUE0184","n_eau_2":"184","nature":"RE","capacite":null,"geo_point_2d":{"lon":3.647267091636874,"lat":43.59158888198389},"gdb_archive_oid":81}},{"type":"Feature","geometry":{"coordinates":[3.8856868519555405,43.825570450451764],"type":"Point"},"properties":{"n_eau_1":"HES0246","n_eau_2":"246","nature":"RE","capacite":null,"geo_point_2d":{"lon":3.8856868519555405,"lat":43.825570450451764},"gdb_archive_oid":83}},{"type":"Feature","geometry":{"coordinates":[2.6454542178534344,43.40180319730044],"type":"Point"},"properties":{"n_eau_1":"AVM0483","n_eau_2":"483","nature":"CI","capacite":30,"geo_point_2d":{"lon":2.6454542178534344,"lat":43.40180319730044},"gdb_archive_oid":96}},{"type":"Feature","geometry":{"coordinates":[2.6745118650089132,43.33701055532412],"type":"Point"},"properties":{"n_eau_1":"AVV0273","n_eau_2":"273","nature":"CI","capacite":30,"geo_point_2d":{"lon":2.6745118650089132,"lat":43.33701055532412},"gdb_archive_oid":98}},{"type":"Feature","geometry":{"coordinates":[2.7590660784584347,43.614385544440346],"type":"Point"},"properties":{"n_eau_1":"CAS0499","n_eau_2":"499","nature":"CI","capacite":30,"geo_point_2d":{"lon":2.7590660784584347,"lat":43.614385544440346},"gdb_archive_oid":116}},{"type":"Feature","geometry":{"coordinates":[2.7869772903146766,43.38191436450212],"type":"Point"},"properties":{"n_eau_1":"AVV0474","n_eau_2":"474","nature":"CI","capacite":50,"geo_point_2d":{"lon":2.7869772903146766,"lat":43.38191436450212},"gdb_archive_oid":118}},{"type":"Feature","geometry":{"coordinates":[2.8028119737147925,43.50682404104167],"type":"Point"},"properties":{"n_eau_1":"AVA0511","n_eau_2":"511","nature":"CI","capacite":35,"geo_point_2d":{"lon":2.8028119737147925,"lat":43.50682404104167},"gdb_archive_oid":121}},{"type":"Feature","geometry":{"coordinates":[2.812901350219008,43.35146744854289],"type":"Point"},"properties":{"n_eau_1":"AVV0215","n_eau_2":"215","nature":"CI","capacite":30,"geo_point_2d":{"lon":2.812901350219008,"lat":43.35146744854289},"gdb_archive_oid":123}},{"type":"Feature","geometry":{"coordinates":[2.8162380770472044,43.3925818097997],"type":"Point"},"properties":{"n_eau_1":"AVV0477","n_eau_2":"477","nature":"CI","capacite":35,"geo_point_2d":{"lon":2.8162380770472044,"lat":43.3925818097997},"gdb_archive_oid":124}},{"type":"Feature","geometry":{"coordinates":[2.8131641353340973,43.536659630798106],"type":"Point"},"properties":{"n_eau_1":"CAO0447","n_eau_2":"447","nature":"CI","capacite":30,"geo_point_2d":{"lon":2.8131641353340973,"lat":43.536659630798106},"gdb_archive_oid":126}},{"type":"Feature","geometry":{"coordinates":[2.843519889515665,43.32674970080268],"type":"Point"},"properties":{"n_eau_1":"AVV0218","n_eau_2":"218","nature":"CI","capacite":30,"geo_point_2d":{"lon":2.843519889515665,"lat":43.32674970080268},"gdb_archive_oid":128}},{"type":"Feature","geometry":{"coordinates":[2.848037874439125,43.46049966719464],"type":"Point"},"properties":{"n_eau_1":"AVM0493","n_eau_2":"493","nature":"CI","capacite":30,"geo_point_2d":{"lon":2.848037874439125,"lat":43.46049966719464},"gdb_archive_oid":132}},{"type":"Feature","geometry":{"coordinates":[2.837267752963942,43.54494315097007],"type":"Point"},"properties":{"n_eau_1":"CAO0076","n_eau_2":"076","nature":"CI","capacite":25,"geo_point_2d":{"lon":2.837267752963942,"lat":43.54494315097007},"gdb_archive_oid":137}},{"type":"Feature","geometry":{"coordinates":[3.18244974130274,43.98896474471874],"type":"Point"},"properties":{"n_eau_1":"AVC0416","n_eau_2":"416","nature":"CI","capacite":25,"geo_point_2d":{"lon":3.18244974130274,"lat":43.98896474471874},"gdb_archive_oid":139}},{"type":"Feature","geometry":{"coordinates":[2.8958500594253485,43.334235582837984],"type":"Point"},"properties":{"n_eau_1":"AVC0436","n_eau_2":"436","nature":"CI","capacite":30,"geo_point_2d":{"lon":2.8958500594253485,"lat":43.334235582837984},"gdb_archive_oid":140}},{"type":"Feature","geometry":{"coordinates":[2.8999538319941145,43.36761036370806],"type":"Point"},"properties":{"n_eau_1":"AVC0517","n_eau_2":"517","nature":"CI","capacite":40,"geo_point_2d":{"lon":2.8999538319941145,"lat":43.36761036370806},"gdb_archive_oid":142}},{"type":"Feature","geometry":{"coordinates":[2.885096076057988,43.43517109703816],"type":"Point"},"properties":{"n_eau_1":"AVV0506","n_eau_2":"506","nature":"CI","capacite":30,"geo_point_2d":{"lon":2.885096076057988,"lat":43.43517109703816},"gdb_archive_oid":143}},{"type":"Feature","geometry":{"coordinates":[3.033247252301925,43.38145292817346],"type":"Point"},"properties":{"n_eau_1":"AVC0157","n_eau_2":"157","nature":"CI","capacite":25,"geo_point_2d":{"lon":3.033247252301925,"lat":43.38145292817346},"gdb_archive_oid":168}},{"type":"Feature","geometry":{"coordinates":[3.033021905303264,43.403408122032204],"type":"Point"},"properties":{"n_eau_1":"AVC0466","n_eau_2":"466","nature":"CI","capacite":50,"geo_point_2d":{"lon":3.033021905303264,"lat":43.403408122032204},"gdb_archive_oid":170}},{"type":"Feature","geometry":{"coordinates":[3.0854804927675956,43.64490123803267],"type":"Point"},"properties":{"n_eau_1":"CAM0527","n_eau_2":"527","nature":"CI","capacite":20,"geo_point_2d":{"lon":3.0854804927675956,"lat":43.64490123803267},"gdb_archive_oid":176}},{"type":"Feature","geometry":{"coordinates":[3.1262103363090814,43.71865036094306],"type":"Point"},"properties":{"n_eau_1":"CAM0544","n_eau_2":"544","nature":"CI","capacite":30,"geo_point_2d":{"lon":3.1262103363090814,"lat":43.71865036094306},"gdb_archive_oid":178}},{"type":"Feature","geometry":{"coordinates":[3.1591839166611635,43.568552485724496],"type":"Point"},"properties":{"n_eau_1":"AVF0126","n_eau_2":"126","nature":"CI","capacite":20,"geo_point_2d":{"lon":3.1591839166611635,"lat":43.568552485724496},"gdb_archive_oid":181}},{"type":"Feature","geometry":{"coordinates":[3.325074256757085,43.550446524229116],"type":"Point"},"properties":{"n_eau_1":"AVF0178","n_eau_2":"178","nature":"CI","capacite":20,"geo_point_2d":{"lon":3.325074256757085,"lat":43.550446524229116},"gdb_archive_oid":189}},{"type":"Feature","geometry":{"coordinates":[3.671768076530717,43.58258139522903],"type":"Point"},"properties":{"n_eau_1":"AUE0186","n_eau_2":"186","nature":"CI","capacite":20,"geo_point_2d":{"lon":3.671768076530717,"lat":43.58258139522903},"gdb_archive_oid":201}},{"type":"Feature","geometry":{"coordinates":[3.678924607469062,43.901656901708485],"type":"Point"},"properties":{"n_eau_1":"HEN0266","n_eau_2":"266","nature":"CI","capacite":30,"geo_point_2d":{"lon":3.678924607469062,"lat":43.901656901708485},"gdb_archive_oid":202}},{"type":"Feature","geometry":{"coordinates":[3.689502443725178,43.585871160726384],"type":"Point"},"properties":{"n_eau_1":"AUE0295","n_eau_2":"295","nature":"CI","capacite":20,"geo_point_2d":{"lon":3.689502443725178,"lat":43.585871160726384},"gdb_archive_oid":203}},{"type":"Feature","geometry":{"coordinates":[3.719236646010113,43.46068261096096],"type":"Point"},"properties":{"n_eau_1":"GAR0196","n_eau_2":"196","nature":"CI","capacite":30,"geo_point_2d":{"lon":3.719236646010113,"lat":43.46068261096096},"gdb_archive_oid":208}},{"type":"Feature","geometry":{"coordinates":[3.7336814442157364,43.48391565555489],"type":"Point"},"properties":{"n_eau_1":"GAR0427","n_eau_2":"427","nature":"CI","capacite":30,"geo_point_2d":{"lon":3.7336814442157364,"lat":43.48391565555489},"gdb_archive_oid":210}},{"type":"Feature","geometry":{"coordinates":[3.878394842663061,43.65954533844628],"type":"Point"},"properties":{"n_eau_1":"MOC0294","n_eau_2":"294","nature":"CI","capacite":20,"geo_point_2d":{"lon":3.878394842663061,"lat":43.65954533844628},"gdb_archive_oid":215}},{"type":"Feature","geometry":{"coordinates":[3.884783829349845,43.73027650390726],"type":"Point"},"properties":{"n_eau_1":"MOC0268","n_eau_2":"268","nature":"CI","capacite":30,"geo_point_2d":{"lon":3.884783829349845,"lat":43.73027650390726},"gdb_archive_oid":219}},{"type":"Feature","geometry":{"coordinates":[3.877384350837566,43.7545107173473],"type":"Point"},"properties":{"n_eau_1":"MOC0342","n_eau_2":"342","nature":"CI","capacite":20,"geo_point_2d":{"lon":3.877384350837566,"lat":43.7545107173473},"gdb_archive_oid":221}},{"type":"Feature","geometry":{"coordinates":[3.374996641236775,43.7418746442337],"type":"Point"},"properties":{"n_eau_1":"LOE0542","n_eau_2":"542","nature":"CI","capacite":40,"geo_point_2d":{"lon":3.374996641236775,"lat":43.7418746442337},"gdb_archive_oid":224}},{"type":"Feature","geometry":{"coordinates":[2.64721924726614,43.39090746804094],"type":"Point"},"properties":{"n_eau_1":"AVM0088","n_eau_2":"088","nature":"CI","capacite":30,"geo_point_2d":{"lon":2.64721924726614,"lat":43.39090746804094},"gdb_archive_oid":225}},{"type":"Feature","geometry":{"coordinates":[2.9889051834566267,43.62805468229124],"type":"Point"},"properties":{"n_eau_1":"CAX0014","n_eau_2":"014","nature":"CI","capacite":20,"geo_point_2d":{"lon":2.9889051834566267,"lat":43.62805468229124},"gdb_archive_oid":227}},{"type":"Feature","geometry":{"coordinates":[3.747082360619005,43.48847678167926],"type":"Point"},"properties":{"n_eau_1":"GAR0431","n_eau_2":"431","nature":"CI","capacite":30,"geo_point_2d":{"lon":3.747082360619005,"lat":43.48847678167926},"gdb_archive_oid":229}},{"type":"Feature","geometry":{"coordinates":[2.6842135727628267,43.421632482451756],"type":"Point"},"properties":{"n_eau_1":"AVM0090","n_eau_2":"090","nature":"CI","capacite":30,"geo_point_2d":{"lon":2.6842135727628267,"lat":43.421632482451756},"gdb_archive_oid":241}},{"type":"Feature","geometry":{"coordinates":[2.7569348233448525,43.5321848617139],"type":"Point"},"properties":{"n_eau_1":"CAS0242","n_eau_2":"242","nature":"CI","capacite":35,"geo_point_2d":{"lon":2.7569348233448525,"lat":43.5321848617139},"gdb_archive_oid":242}},{"type":"Feature","geometry":{"coordinates":[2.8282104246076574,43.555426947766165],"type":"Point"},"properties":{"n_eau_1":"CAO0446","n_eau_2":"446","nature":"CI","capacite":30,"geo_point_2d":{"lon":2.8282104246076574,"lat":43.555426947766165},"gdb_archive_oid":248}},{"type":"Feature","geometry":{"coordinates":[2.8512484196365926,43.601719839045444],"type":"Point"},"properties":{"n_eau_1":"CAS0084","n_eau_2":"084","nature":"CI","capacite":50,"geo_point_2d":{"lon":2.8512484196365926,"lat":43.601719839045444},"gdb_archive_oid":252}},{"type":"Feature","geometry":{"coordinates":[2.9144869858181686,43.47104715313884],"type":"Point"},"properties":{"n_eau_1":"AVA0325","n_eau_2":"325","nature":"CI","capacite":30,"geo_point_2d":{"lon":2.9144869858181686,"lat":43.47104715313884},"gdb_archive_oid":261}},{"type":"Feature","geometry":{"coordinates":[2.905615433829237,43.593041757919366],"type":"Point"},"properties":{"n_eau_1":"CAO0281","n_eau_2":"281","nature":"CI","capacite":20,"geo_point_2d":{"lon":2.905615433829237,"lat":43.593041757919366},"gdb_archive_oid":262}},{"type":"Feature","geometry":{"coordinates":[2.9948688877564473,43.37665206855995],"type":"Point"},"properties":{"n_eau_1":"AVC0290","n_eau_2":"290","nature":"CI","capacite":20,"geo_point_2d":{"lon":2.9948688877564473,"lat":43.37665206855995},"gdb_archive_oid":267}},{"type":"Feature","geometry":{"coordinates":[2.995557650549796,43.47517322022175],"type":"Point"},"properties":{"n_eau_1":"AVA0155","n_eau_2":"155","nature":"CI","capacite":30,"geo_point_2d":{"lon":2.995557650549796,"lat":43.47517322022175},"gdb_archive_oid":268}},{"type":"Feature","geometry":{"coordinates":[3.0065461296200966,43.38563484192031],"type":"Point"},"properties":{"n_eau_1":"AVC0286","n_eau_2":"286","nature":"CI","capacite":25,"geo_point_2d":{"lon":3.0065461296200966,"lat":43.38563484192031},"gdb_archive_oid":270}},{"type":"Feature","geometry":{"coordinates":[3.042062928451442,43.68504889871935],"type":"Point"},"properties":{"n_eau_1":"CAM0301","n_eau_2":"301","nature":"CI","capacite":20,"geo_point_2d":{"lon":3.042062928451442,"lat":43.68504889871935},"gdb_archive_oid":277}},{"type":"Feature","geometry":{"coordinates":[3.0693464494000886,43.51695371562981],"type":"Point"},"properties":{"n_eau_1":"AVF0302","n_eau_2":"302","nature":"CI","capacite":30,"geo_point_2d":{"lon":3.0693464494000886,"lat":43.51695371562981},"gdb_archive_oid":278}},{"type":"Feature","geometry":{"coordinates":[3.3417445626009425,43.7921967141414],"type":"Point"},"properties":{"n_eau_1":"LAR0135","n_eau_2":"135","nature":"CI","capacite":50,"geo_point_2d":{"lon":3.3417445626009425,"lat":43.7921967141414},"gdb_archive_oid":289}},{"type":"Feature","geometry":{"coordinates":[3.401247966886124,43.90876535559879],"type":"Point"},"properties":{"n_eau_1":"LAR0415","n_eau_2":"415","nature":"CI","capacite":20,"geo_point_2d":{"lon":3.401247966886124,"lat":43.90876535559879},"gdb_archive_oid":292}},{"type":"Feature","geometry":{"coordinates":[3.56249553685251,43.728376987025904],"type":"Point"},"properties":{"n_eau_1":"HES0293","n_eau_2":"293","nature":"CI","capacite":23,"geo_point_2d":{"lon":3.56249553685251,"lat":43.728376987025904},"gdb_archive_oid":297}},{"type":"Feature","geometry":{"coordinates":[3.5553685615117794,43.775705002748246],"type":"Point"},"properties":{"n_eau_1":"LOG0417","n_eau_2":"417","nature":"CI","capacite":30,"geo_point_2d":{"lon":3.5553685615117794,"lat":43.775705002748246},"gdb_archive_oid":298}},{"type":"Feature","geometry":{"coordinates":[3.5788577113168425,43.723820375914904],"type":"Point"},"properties":{"n_eau_1":"HES0349","n_eau_2":"349","nature":"CI","capacite":30,"geo_point_2d":{"lon":3.5788577113168425,"lat":43.723820375914904},"gdb_archive_oid":300}},{"type":"Feature","geometry":{"coordinates":[3.7624678226648083,43.503809255936694],"type":"Point"},"properties":{"n_eau_1":"GAR0205","n_eau_2":"205","nature":"CI","capacite":20,"geo_point_2d":{"lon":3.7624678226648083,"lat":43.503809255936694},"gdb_archive_oid":312}},{"type":"Feature","geometry":{"coordinates":[3.61725971591295,43.6285347641638],"type":"Point"},"properties":{"n_eau_1":"HES0345","n_eau_2":"345","nature":"CI","capacite":30,"geo_point_2d":{"lon":3.61725971591295,"lat":43.6285347641638},"gdb_archive_oid":301}},{"type":"Feature","geometry":{"coordinates":[3.620135068007137,43.73522035068457],"type":"Point"},"properties":{"n_eau_1":"HES0296","n_eau_2":"296","nature":"CI","capacite":20,"geo_point_2d":{"lon":3.620135068007137,"lat":43.73522035068457},"gdb_archive_oid":304}},{"type":"Feature","geometry":{"coordinates":[3.7102941306775854,43.68318693652575],"type":"Point"},"properties":{"n_eau_1":"HES0406","n_eau_2":"406","nature":"CI","capacite":35,"geo_point_2d":{"lon":3.7102941306775854,"lat":43.68318693652575},"gdb_archive_oid":308}},{"type":"Feature","geometry":{"coordinates":[3.72497481090202,43.59822803246584],"type":"Point"},"properties":{"n_eau_1":"AUE0262","n_eau_2":"262","nature":"CI","capacite":35,"geo_point_2d":{"lon":3.72497481090202,"lat":43.59822803246584},"gdb_archive_oid":310}},{"type":"Feature","geometry":{"coordinates":[3.7336623600074157,43.61847436466461],"type":"Point"},"properties":{"n_eau_1":"AUE0260","n_eau_2":"260","nature":"CI","capacite":40,"geo_point_2d":{"lon":3.7336623600074157,"lat":43.61847436466461},"gdb_archive_oid":311}},{"type":"Feature","geometry":{"coordinates":[3.841162824986902,43.714942906206474],"type":"Point"},"properties":{"n_eau_1":"MOO0236","n_eau_2":"236","nature":"CI","capacite":20,"geo_point_2d":{"lon":3.841162824986902,"lat":43.714942906206474},"gdb_archive_oid":317}},{"type":"Feature","geometry":{"coordinates":[3.8687725168545324,43.71853257317306],"type":"Point"},"properties":{"n_eau_1":"MOC0320","n_eau_2":"320","nature":"CI","capacite":30,"geo_point_2d":{"lon":3.8687725168545324,"lat":43.71853257317306},"gdb_archive_oid":318}},{"type":"Feature","geometry":{"coordinates":[2.701428609142337,43.41982231442706],"type":"Point"},"properties":{"n_eau_1":"AVM0048","n_eau_2":"048","nature":"CI","capacite":20,"geo_point_2d":{"lon":2.701428609142337,"lat":43.41982231442706},"gdb_archive_oid":3}},{"type":"Feature","geometry":{"coordinates":[2.7160661071887424,43.599226511667084],"type":"Point"},"properties":{"n_eau_1":"CAS0306","n_eau_2":"306","nature":"CI","capacite":50,"geo_point_2d":{"lon":2.7160661071887424,"lat":43.599226511667084},"gdb_archive_oid":8}},{"type":"Feature","geometry":{"coordinates":[2.7332475147906594,43.57604023324574],"type":"Point"},"properties":{"n_eau_1":"CAS0456","n_eau_2":"456","nature":"CI","capacite":30,"geo_point_2d":{"lon":2.7332475147906594,"lat":43.57604023324574},"gdb_archive_oid":10}},{"type":"Feature","geometry":{"coordinates":[2.8345850124666345,43.45693435454291],"type":"Point"},"properties":{"n_eau_1":"AVM0058","n_eau_2":"058","nature":"CI","capacite":20,"geo_point_2d":{"lon":2.8345850124666345,"lat":43.45693435454291},"gdb_archive_oid":17}},{"type":"Feature","geometry":{"coordinates":[2.9028175240347545,43.6467505255121],"type":"Point"},"properties":{"n_eau_1":"CAS0565","n_eau_2":"565","nature":"CI","capacite":30,"geo_point_2d":{"lon":2.9028175240347545,"lat":43.6467505255121},"gdb_archive_oid":25}},{"type":"Feature","geometry":{"coordinates":[3.1084378548034386,43.79420739903964],"type":"Point"},"properties":{"n_eau_1":"EON0110","n_eau_2":"110","nature":"CI","capacite":20,"geo_point_2d":{"lon":3.1084378548034386,"lat":43.79420739903964},"gdb_archive_oid":33}},{"type":"Feature","geometry":{"coordinates":[3.2168392856901242,43.75802253894676],"type":"Point"},"properties":{"n_eau_1":"EON0115","n_eau_2":"115","nature":"CI","capacite":20,"geo_point_2d":{"lon":3.2168392856901242,"lat":43.75802253894676},"gdb_archive_oid":38}},{"type":"Feature","geometry":{"coordinates":[2.674892263650492,43.648884604366806],"type":"Point"},"properties":{"n_eau_1":"CAS0328","n_eau_2":"328","nature":"RE","capacite":null,"geo_point_2d":{"lon":2.674892263650492,"lat":43.648884604366806},"gdb_archive_oid":48}},{"type":"Feature","geometry":{"coordinates":[2.7671453967660797,43.39872082482041],"type":"Point"},"properties":{"n_eau_1":"AVV0249","n_eau_2":"249","nature":"RE","capacite":null,"geo_point_2d":{"lon":2.7671453967660797,"lat":43.39872082482041},"gdb_archive_oid":53}},{"type":"Feature","geometry":{"coordinates":[2.8228746387058288,43.55343327231615],"type":"Point"},"properties":{"n_eau_1":"CAO0074","n_eau_2":"074","nature":"RE","capacite":null,"geo_point_2d":{"lon":2.8228746387058288,"lat":43.55343327231615},"gdb_archive_oid":57}},{"type":"Feature","geometry":{"coordinates":[2.8894217088728693,43.44562348804091],"type":"Point"},"properties":{"n_eau_1":"AVV0159","n_eau_2":"159","nature":"RE","capacite":50,"geo_point_2d":{"lon":2.8894217088728693,"lat":43.44562348804091},"gdb_archive_oid":63}},{"type":"Feature","geometry":{"coordinates":[2.92075390085566,43.37293505334866],"type":"Point"},"properties":{"n_eau_1":"AVC0257","n_eau_2":"257","nature":"RE","capacite":null,"geo_point_2d":{"lon":2.92075390085566,"lat":43.37293505334866},"gdb_archive_oid":65}},{"type":"Feature","geometry":{"coordinates":[3.0696170311390514,43.74687364847266],"type":"Point"},"properties":{"n_eau_1":"CAM0100","n_eau_2":"100","nature":"RE","capacite":null,"geo_point_2d":{"lon":3.0696170311390514,"lat":43.74687364847266},"gdb_archive_oid":71}},{"type":"Feature","geometry":{"coordinates":[3.097872590438773,43.72067787529203],"type":"Point"},"properties":{"n_eau_1":"CAM0035","n_eau_2":"035","nature":"RE","capacite":null,"geo_point_2d":{"lon":3.097872590438773,"lat":43.72067787529203},"gdb_archive_oid":72}},{"type":"Feature","geometry":{"coordinates":[3.127191104485368,43.69051782160682],"type":"Point"},"properties":{"n_eau_1":"CAM0039","n_eau_2":"039","nature":"RE","capacite":null,"geo_point_2d":{"lon":3.127191104485368,"lat":43.69051782160682},"gdb_archive_oid":73}},{"type":"Feature","geometry":{"coordinates":[3.2191277067754775,43.66680245259166],"type":"Point"},"properties":{"n_eau_1":"EOS0316","n_eau_2":"316","nature":"RE","capacite":null,"geo_point_2d":{"lon":3.2191277067754775,"lat":43.66680245259166},"gdb_archive_oid":74}},{"type":"Feature","geometry":{"coordinates":[2.566976956359303,43.34256795985812],"type":"Point"},"properties":{"n_eau_1":"AVM0272","n_eau_2":"272","nature":"CI","capacite":35,"geo_point_2d":{"lon":2.566976956359303,"lat":43.34256795985812},"gdb_archive_oid":85}},{"type":"Feature","geometry":{"coordinates":[2.604071979551452,43.401420367524466],"type":"Point"},"properties":{"n_eau_1":"AVM0462","n_eau_2":"462","nature":"CI","capacite":30,"geo_point_2d":{"lon":2.604071979551452,"lat":43.401420367524466},"gdb_archive_oid":91}},{"type":"Feature","geometry":{"coordinates":[2.6304266977490007,43.39978020367321],"type":"Point"},"properties":{"n_eau_1":"AVM0464","n_eau_2":"464","nature":"CI","capacite":50,"geo_point_2d":{"lon":2.6304266977490007,"lat":43.39978020367321},"gdb_archive_oid":92}},{"type":"Feature","geometry":{"coordinates":[2.704848141559967,43.34199111224713],"type":"Point"},"properties":{"n_eau_1":"AVV0503","n_eau_2":"503","nature":"CI","capacite":25,"geo_point_2d":{"lon":2.704848141559967,"lat":43.34199111224713},"gdb_archive_oid":101}},{"type":"Feature","geometry":{"coordinates":[2.7235468170357215,43.48311371885351],"type":"Point"},"properties":{"n_eau_1":"CAO0454","n_eau_2":"454","nature":"CI","capacite":30,"geo_point_2d":{"lon":2.7235468170357215,"lat":43.48311371885351},"gdb_archive_oid":105}},{"type":"Feature","geometry":{"coordinates":[2.7546394040099837,43.39815464467154],"type":"Point"},"properties":{"n_eau_1":"AVM0491","n_eau_2":"491","nature":"CI","capacite":50,"geo_point_2d":{"lon":2.7546394040099837,"lat":43.39815464467154},"gdb_archive_oid":109}},{"type":"Feature","geometry":{"coordinates":[2.7899513496394697,43.2923260446928],"type":"Point"},"properties":{"n_eau_1":"AVV0216","n_eau_2":"216","nature":"CI","capacite":30,"geo_point_2d":{"lon":2.7899513496394697,"lat":43.2923260446928},"gdb_archive_oid":117}},{"type":"Feature","geometry":{"coordinates":[2.788037325851318,43.38871517898167],"type":"Point"},"properties":{"n_eau_1":"AVV0475","n_eau_2":"475","nature":"CI","capacite":50,"geo_point_2d":{"lon":2.788037325851318,"lat":43.38871517898167},"gdb_archive_oid":119}},{"type":"Feature","geometry":{"coordinates":[2.790579984576896,43.61058950148361],"type":"Point"},"properties":{"n_eau_1":"CAS0420","n_eau_2":"420","nature":"CI","capacite":35,"geo_point_2d":{"lon":2.790579984576896,"lat":43.61058950148361},"gdb_archive_oid":122}},{"type":"Feature","geometry":{"coordinates":[2.8235892501444733,43.60742612113065],"type":"Point"},"properties":{"n_eau_1":"CAS0501","n_eau_2":"501","nature":"CI","capacite":30,"geo_point_2d":{"lon":2.8235892501444733,"lat":43.60742612113065},"gdb_archive_oid":127}},{"type":"Feature","geometry":{"coordinates":[2.9099167387551343,43.394848981885524],"type":"Point"},"properties":{"n_eau_1":"AVC0460","n_eau_2":"460","nature":"CI","capacite":40,"geo_point_2d":{"lon":2.9099167387551343,"lat":43.394848981885524},"gdb_archive_oid":149}},{"type":"Feature","geometry":{"coordinates":[2.937670911278832,43.50552439884494],"type":"Point"},"properties":{"n_eau_1":"AVA0534","n_eau_2":"534","nature":"CI","capacite":40,"geo_point_2d":{"lon":2.937670911278832,"lat":43.50552439884494},"gdb_archive_oid":155}},{"type":"Feature","geometry":{"coordinates":[3.004221528756254,43.465683338000815],"type":"Point"},"properties":{"n_eau_1":"AVA0525","n_eau_2":"525","nature":"CI","capacite":40,"geo_point_2d":{"lon":3.004221528756254,"lat":43.465683338000815},"gdb_archive_oid":166}},{"type":"Feature","geometry":{"coordinates":[3.045715139419618,43.407979421801066],"type":"Point"},"properties":{"n_eau_1":"AVC0158","n_eau_2":"158","nature":"CI","capacite":35,"geo_point_2d":{"lon":3.045715139419618,"lat":43.407979421801066},"gdb_archive_oid":169}},{"type":"Feature","geometry":{"coordinates":[3.0402279257778115,43.67208696116944],"type":"Point"},"properties":{"n_eau_1":"CAM0524","n_eau_2":"524","nature":"CI","capacite":20,"geo_point_2d":{"lon":3.0402279257778115,"lat":43.67208696116944},"gdb_archive_oid":173}},{"type":"Feature","geometry":{"coordinates":[3.068098620113438,43.59520435962409],"type":"Point"},"properties":{"n_eau_1":"CAO0529","n_eau_2":"529","nature":"CI","capacite":20,"geo_point_2d":{"lon":3.068098620113438,"lat":43.59520435962409},"gdb_archive_oid":175}},{"type":"Feature","geometry":{"coordinates":[3.0939779029908543,43.63766540366636],"type":"Point"},"properties":{"n_eau_1":"CAM0528","n_eau_2":"528","nature":"CI","capacite":20,"geo_point_2d":{"lon":3.0939779029908543,"lat":43.63766540366636},"gdb_archive_oid":177}},{"type":"Feature","geometry":{"coordinates":[3.162498305878181,43.57200846790886],"type":"Point"},"properties":{"n_eau_1":"AVF0125","n_eau_2":"125","nature":"CI","capacite":20,"geo_point_2d":{"lon":3.162498305878181,"lat":43.57200846790886},"gdb_archive_oid":180}},{"type":"Feature","geometry":{"coordinates":[3.194853365609415,43.61181623523403],"type":"Point"},"properties":{"n_eau_1":"AVF0121","n_eau_2":"121","nature":"CI","capacite":30,"geo_point_2d":{"lon":3.194853365609415,"lat":43.61181623523403},"gdb_archive_oid":184}},{"type":"Feature","geometry":{"coordinates":[3.191691663685622,43.718644473801334],"type":"Point"},"properties":{"n_eau_1":"EON0538","n_eau_2":"538","nature":"CI","capacite":30,"geo_point_2d":{"lon":3.191691663685622,"lat":43.718644473801334},"gdb_archive_oid":185}},{"type":"Feature","geometry":{"coordinates":[3.3094676621639727,43.75925242700831],"type":"Point"},"properties":{"n_eau_1":"EON0537","n_eau_2":"537","nature":"CI","capacite":20,"geo_point_2d":{"lon":3.3094676621639727,"lat":43.75925242700831},"gdb_archive_oid":190}},{"type":"Feature","geometry":{"coordinates":[3.3903668167586813,43.60136883635316],"type":"Point"},"properties":{"n_eau_1":"SAL0471","n_eau_2":"471","nature":"CI","capacite":35,"geo_point_2d":{"lon":3.3903668167586813,"lat":43.60136883635316},"gdb_archive_oid":193}},{"type":"Feature","geometry":{"coordinates":[3.549593945648099,43.4970661031976],"type":"Point"},"properties":{"n_eau_1":"AUO0526","n_eau_2":"526","nature":"CI","capacite":20,"geo_point_2d":{"lon":3.549593945648099,"lat":43.4970661031976},"gdb_archive_oid":199}},{"type":"Feature","geometry":{"coordinates":[3.7166902585159245,43.473914789453985],"type":"Point"},"properties":{"n_eau_1":"GAR0195","n_eau_2":"195","nature":"CI","capacite":30,"geo_point_2d":{"lon":3.7166902585159245,"lat":43.473914789453985},"gdb_archive_oid":206}},{"type":"Feature","geometry":{"coordinates":[3.89182906191876,43.73798123391994],"type":"Point"},"properties":{"n_eau_1":"MOC0267","n_eau_2":"267","nature":"CI","capacite":30,"geo_point_2d":{"lon":3.89182906191876,"lat":43.73798123391994},"gdb_archive_oid":220}},{"type":"Feature","geometry":{"coordinates":[2.859534522493434,43.536058752262385],"type":"Point"},"properties":{"n_eau_1":"CAO0235","n_eau_2":"235","nature":"CI","capacite":25,"geo_point_2d":{"lon":2.859534522493434,"lat":43.536058752262385},"gdb_archive_oid":223}},{"type":"Feature","geometry":{"coordinates":[3.0027922401211944,43.62930888445876],"type":"Point"},"properties":{"n_eau_1":"CAX0449","n_eau_2":"449","nature":"CI","capacite":30,"geo_point_2d":{"lon":3.0027922401211944,"lat":43.62930888445876},"gdb_archive_oid":228}},{"type":"Feature","geometry":{"coordinates":[3.747236342579346,43.48842116458635],"type":"Point"},"properties":{"n_eau_1":"GAR0187","n_eau_2":"187","nature":"CI","capacite":40,"geo_point_2d":{"lon":3.747236342579346,"lat":43.48842116458635},"gdb_archive_oid":230}},{"type":"Feature","geometry":{"coordinates":[2.658134579273788,43.42604390401314],"type":"Point"},"properties":{"n_eau_1":"AVM0258","n_eau_2":"258","nature":"CI","capacite":25,"geo_point_2d":{"lon":2.658134579273788,"lat":43.42604390401314},"gdb_archive_oid":240}},{"type":"Feature","geometry":{"coordinates":[2.771474443884486,43.43864477247011],"type":"Point"},"properties":{"n_eau_1":"AVM0052","n_eau_2":"052","nature":"CI","capacite":20,"geo_point_2d":{"lon":2.771474443884486,"lat":43.43864477247011},"gdb_archive_oid":244}},{"type":"Feature","geometry":{"coordinates":[2.786149540709864,43.31369820842891],"type":"Point"},"properties":{"n_eau_1":"AVV0255","n_eau_2":"255","nature":"CI","capacite":30,"geo_point_2d":{"lon":2.786149540709864,"lat":43.31369820842891},"gdb_archive_oid":245}},{"type":"Feature","geometry":{"coordinates":[2.833727746946872,43.40262708327214],"type":"Point"},"properties":{"n_eau_1":"AVV0324","n_eau_2":"324","nature":"CI","capacite":35,"geo_point_2d":{"lon":2.833727746946872,"lat":43.40262708327214},"gdb_archive_oid":249}},{"type":"Feature","geometry":{"coordinates":[2.876614055506111,43.55927983664933],"type":"Point"},"properties":{"n_eau_1":"CAO0426","n_eau_2":"426","nature":"CI","capacite":30,"geo_point_2d":{"lon":2.876614055506111,"lat":43.55927983664933},"gdb_archive_oid":254}},{"type":"Feature","geometry":{"coordinates":[2.9196183888993215,43.60004958928151],"type":"Point"},"properties":{"n_eau_1":"CAO0282","n_eau_2":"282","nature":"CI","capacite":20,"geo_point_2d":{"lon":2.9196183888993215,"lat":43.60004958928151},"gdb_archive_oid":263}},{"type":"Feature","geometry":{"coordinates":[3.0057707497063664,43.40721142570042],"type":"Point"},"properties":{"n_eau_1":"AVC0289","n_eau_2":"289","nature":"CI","capacite":30,"geo_point_2d":{"lon":3.0057707497063664,"lat":43.40721142570042},"gdb_archive_oid":271}},{"type":"Feature","geometry":{"coordinates":[3.0976995983734694,43.421384829840186],"type":"Point"},"properties":{"n_eau_1":"AVC0264","n_eau_2":"264","nature":"CI","capacite":30,"geo_point_2d":{"lon":3.0976995983734694,"lat":43.421384829840186},"gdb_archive_oid":273}},{"type":"Feature","geometry":{"coordinates":[3.1124222417909833,43.270841577496014],"type":"Point"},"properties":{"n_eau_1":"PLE0311","n_eau_2":"311","nature":"CI","capacite":30,"geo_point_2d":{"lon":3.1124222417909833,"lat":43.270841577496014},"gdb_archive_oid":281}},{"type":"Feature","geometry":{"coordinates":[3.128698237064319,43.27415896765365],"type":"Point"},"properties":{"n_eau_1":"PLE0312","n_eau_2":"312","nature":"CI","capacite":30,"geo_point_2d":{"lon":3.128698237064319,"lat":43.27415896765365},"gdb_archive_oid":283}},{"type":"Feature","geometry":{"coordinates":[3.2140878302915845,43.52541460116328],"type":"Point"},"properties":{"n_eau_1":"AVF0303","n_eau_2":"303","nature":"CI","capacite":35,"geo_point_2d":{"lon":3.2140878302915845,"lat":43.52541460116328},"gdb_archive_oid":287}},{"type":"Feature","geometry":{"coordinates":[3.251369850496188,43.792732705989714],"type":"Point"},"properties":{"n_eau_1":"EON0137","n_eau_2":"137","nature":"CI","capacite":30,"geo_point_2d":{"lon":3.251369850496188,"lat":43.792732705989714},"gdb_archive_oid":288}},{"type":"Feature","geometry":{"coordinates":[3.3706418084581804,43.78664585094572],"type":"Point"},"properties":{"n_eau_1":"LOE0291","n_eau_2":"291","nature":"CI","capacite":20,"geo_point_2d":{"lon":3.3706418084581804,"lat":43.78664585094572},"gdb_archive_oid":290}},{"type":"Feature","geometry":{"coordinates":[3.422288977891101,43.77168484448074],"type":"Point"},"properties":{"n_eau_1":"LOE0149","n_eau_2":"149","nature":"CI","capacite":20,"geo_point_2d":{"lon":3.422288977891101,"lat":43.77168484448074},"gdb_archive_oid":293}},{"type":"Feature","geometry":{"coordinates":[3.464060570166435,43.809666444602044],"type":"Point"},"properties":{"n_eau_1":"LAR0144","n_eau_2":"144","nature":"CI","capacite":50,"geo_point_2d":{"lon":3.464060570166435,"lat":43.809666444602044},"gdb_archive_oid":295}},{"type":"Feature","geometry":{"coordinates":[3.6174710490924578,43.694343726664634],"type":"Point"},"properties":{"n_eau_1":"HES0336","n_eau_2":"336","nature":"CI","capacite":20,"geo_point_2d":{"lon":3.6174710490924578,"lat":43.694343726664634},"gdb_archive_oid":303}},{"type":"Feature","geometry":{"coordinates":[3.6622292822082003,43.57435239191451],"type":"Point"},"properties":{"n_eau_1":"AUO0181","n_eau_2":"181","nature":"CI","capacite":30,"geo_point_2d":{"lon":3.6622292822082003,"lat":43.57435239191451},"gdb_archive_oid":305}},{"type":"Feature","geometry":{"coordinates":[3.708405857679199,43.466443156372605],"type":"Point"},"properties":{"n_eau_1":"GAR0209","n_eau_2":"209","nature":"CI","capacite":20,"geo_point_2d":{"lon":3.708405857679199,"lat":43.466443156372605},"gdb_archive_oid":307}},{"type":"Feature","geometry":{"coordinates":[3.7869015196321554,43.876939815355165],"type":"Point"},"properties":{"n_eau_1":"HEC0256","n_eau_2":"256","nature":"CI","capacite":40,"geo_point_2d":{"lon":3.7869015196321554,"lat":43.876939815355165},"gdb_archive_oid":315}},{"type":"Feature","geometry":{"coordinates":[3.9477557824512637,43.72988566483184],"type":"Point"},"properties":{"n_eau_1":"MOE0228","n_eau_2":"228","nature":"CI","capacite":20,"geo_point_2d":{"lon":3.9477557824512637,"lat":43.72988566483184},"gdb_archive_oid":321}},{"type":"Feature","geometry":{"coordinates":[3.527187864772532,43.73232842571639],"type":"Point"},"properties":{"n_eau_1":"LOG0414","n_eau_2":"414","nature":"CI","capacite":30,"geo_point_2d":{"lon":3.527187864772532,"lat":43.73232842571639},"gdb_archive_oid":324}},{"type":"Feature","geometry":{"coordinates":[2.720565103034473,43.43455154561782],"type":"Point"},"properties":{"n_eau_1":"AVM0051","n_eau_2":"051","nature":"CI","capacite":20,"geo_point_2d":{"lon":2.720565103034473,"lat":43.43455154561782},"gdb_archive_oid":325}},{"type":"Feature","geometry":{"coordinates":[2.718896678435845,43.46340770959933],"type":"Point"},"properties":{"n_eau_1":"AVM0060","n_eau_2":"060","nature":"CI","capacite":20,"geo_point_2d":{"lon":2.718896678435845,"lat":43.46340770959933},"gdb_archive_oid":7}},{"type":"Feature","geometry":{"coordinates":[2.8515333190757772,43.44606669285951],"type":"Point"},"properties":{"n_eau_1":"AVV0056","n_eau_2":"056","nature":"CI","capacite":35,"geo_point_2d":{"lon":2.8515333190757772,"lat":43.44606669285951},"gdb_archive_oid":16}},{"type":"Feature","geometry":{"coordinates":[2.8817706227907767,43.496680632301484],"type":"Point"},"properties":{"n_eau_1":"AVA0162","n_eau_2":"162","nature":"CI","capacite":20,"geo_point_2d":{"lon":2.8817706227907767,"lat":43.496680632301484},"gdb_archive_oid":23}},{"type":"Feature","geometry":{"coordinates":[2.928352754809426,43.62629989369943],"type":"Point"},"properties":{"n_eau_1":"CAS0566","n_eau_2":"566","nature":"CI","capacite":30,"geo_point_2d":{"lon":2.928352754809426,"lat":43.62629989369943},"gdb_archive_oid":26}},{"type":"Feature","geometry":{"coordinates":[3.196943300449425,43.77086712092779],"type":"Point"},"properties":{"n_eau_1":"EON0114","n_eau_2":"114","nature":"CI","capacite":20,"geo_point_2d":{"lon":3.196943300449425,"lat":43.77086712092779},"gdb_archive_oid":37}},{"type":"Feature","geometry":{"coordinates":[3.5082028381728256,43.74022925012636],"type":"Point"},"properties":{"n_eau_1":"LOG0152","n_eau_2":"152","nature":"CI","capacite":30,"geo_point_2d":{"lon":3.5082028381728256,"lat":43.74022925012636},"gdb_archive_oid":45}},{"type":"Feature","geometry":{"coordinates":[2.8151755409415893,43.55090269475535],"type":"Point"},"properties":{"n_eau_1":"CAO0072","n_eau_2":"072","nature":"RE","capacite":null,"geo_point_2d":{"lon":2.8151755409415893,"lat":43.55090269475535},"gdb_archive_oid":58}},{"type":"Feature","geometry":{"coordinates":[2.8356801048268783,43.57893637461895],"type":"Point"},"properties":{"n_eau_1":"CAS0082","n_eau_2":"082","nature":"RE","capacite":null,"geo_point_2d":{"lon":2.8356801048268783,"lat":43.57893637461895},"gdb_archive_oid":60}},{"type":"Feature","geometry":{"coordinates":[2.582733253450409,43.34921459452032],"type":"Point"},"properties":{"n_eau_1":"AVM0438","n_eau_2":"438","nature":"CI","capacite":30,"geo_point_2d":{"lon":2.582733253450409,"lat":43.34921459452032},"gdb_archive_oid":87}},{"type":"Feature","geometry":{"coordinates":[2.6195272346080793,43.428452866850755],"type":"Point"},"properties":{"n_eau_1":"AVM0484","n_eau_2":"484","nature":"CI","capacite":50,"geo_point_2d":{"lon":2.6195272346080793,"lat":43.428452866850755},"gdb_archive_oid":93}},{"type":"Feature","geometry":{"coordinates":[2.642597074165735,43.34476707168803],"type":"Point"},"properties":{"n_eau_1":"AVV0468","n_eau_2":"468","nature":"CI","capacite":50,"geo_point_2d":{"lon":2.642597074165735,"lat":43.34476707168803},"gdb_archive_oid":94}},{"type":"Feature","geometry":{"coordinates":[2.672110076635283,43.401972210346294],"type":"Point"},"properties":{"n_eau_1":"AVM0486","n_eau_2":"486","nature":"CI","capacite":30,"geo_point_2d":{"lon":2.672110076635283,"lat":43.401972210346294},"gdb_archive_oid":99}},{"type":"Feature","geometry":{"coordinates":[2.7840195921782085,43.430630177032455],"type":"Point"},"properties":{"n_eau_1":"AVV0479","n_eau_2":"479","nature":"CI","capacite":30,"geo_point_2d":{"lon":2.7840195921782085,"lat":43.430630177032455},"gdb_archive_oid":120}},{"type":"Feature","geometry":{"coordinates":[2.851596417722556,43.32787295245242],"type":"Point"},"properties":{"n_eau_1":"AVV0277","n_eau_2":"277","nature":"CI","capacite":30,"geo_point_2d":{"lon":2.851596417722556,"lat":43.32787295245242},"gdb_archive_oid":129}},{"type":"Feature","geometry":{"coordinates":[2.8533781380061116,43.331028609110334],"type":"Point"},"properties":{"n_eau_1":"AVV0219","n_eau_2":"219","nature":"CI","capacite":30,"geo_point_2d":{"lon":2.8533781380061116,"lat":43.331028609110334},"gdb_archive_oid":130}},{"type":"Feature","geometry":{"coordinates":[2.843810245278432,43.405639347307556],"type":"Point"},"properties":{"n_eau_1":"AVV0478","n_eau_2":"478","nature":"CI","capacite":30,"geo_point_2d":{"lon":2.843810245278432,"lat":43.405639347307556},"gdb_archive_oid":131}},{"type":"Feature","geometry":{"coordinates":[2.8533782874794755,43.492325796038934],"type":"Point"},"properties":{"n_eau_1":"AVA0452","n_eau_2":"452","nature":"CI","capacite":30,"geo_point_2d":{"lon":2.8533782874794755,"lat":43.492325796038934},"gdb_archive_oid":134}},{"type":"Feature","geometry":{"coordinates":[2.850288897010318,43.50745357248378],"type":"Point"},"properties":{"n_eau_1":"AVA0065","n_eau_2":"065","nature":"CI","capacite":20,"geo_point_2d":{"lon":2.850288897010318,"lat":43.50745357248378},"gdb_archive_oid":135}},{"type":"Feature","geometry":{"coordinates":[2.9012109272978566,43.50014669866799],"type":"Point"},"properties":{"n_eau_1":"AVA0562","n_eau_2":"562","nature":"CI","capacite":30,"geo_point_2d":{"lon":2.9012109272978566,"lat":43.50014669866799},"gdb_archive_oid":144}},{"type":"Feature","geometry":{"coordinates":[2.900164137809037,43.519736502411305],"type":"Point"},"properties":{"n_eau_1":"AVA0497","n_eau_2":"497","nature":"CI","capacite":35,"geo_point_2d":{"lon":2.900164137809037,"lat":43.519736502411305},"gdb_archive_oid":146}},{"type":"Feature","geometry":{"coordinates":[2.944839084187612,43.46130566540303],"type":"Point"},"properties":{"n_eau_1":"AVA0532","n_eau_2":"532","nature":"CI","capacite":40,"geo_point_2d":{"lon":2.944839084187612,"lat":43.46130566540303},"gdb_archive_oid":152}},{"type":"Feature","geometry":{"coordinates":[2.9464113344162848,43.52368116459318],"type":"Point"},"properties":{"n_eau_1":"AVA0530","n_eau_2":"530","nature":"CI","capacite":35,"geo_point_2d":{"lon":2.9464113344162848,"lat":43.52368116459318},"gdb_archive_oid":157}},{"type":"Feature","geometry":{"coordinates":[2.9691494674316132,43.37510147765624],"type":"Point"},"properties":{"n_eau_1":"AVC0467","n_eau_2":"467","nature":"CI","capacite":55,"geo_point_2d":{"lon":2.9691494674316132,"lat":43.37510147765624},"gdb_archive_oid":159}},{"type":"Feature","geometry":{"coordinates":[2.958080210850801,43.66965211353131],"type":"Point"},"properties":{"n_eau_1":"CAX0557","n_eau_2":"557","nature":"CI","capacite":20,"geo_point_2d":{"lon":2.958080210850801,"lat":43.66965211353131},"gdb_archive_oid":163}},{"type":"Feature","geometry":{"coordinates":[2.978173078418292,43.45257667157222],"type":"Point"},"properties":{"n_eau_1":"AVA0519","n_eau_2":"519","nature":"CI","capacite":40,"geo_point_2d":{"lon":2.978173078418292,"lat":43.45257667157222},"gdb_archive_oid":165}},{"type":"Feature","geometry":{"coordinates":[3.0133508184102116,43.624297984048255],"type":"Point"},"properties":{"n_eau_1":"CAX0445","n_eau_2":"445","nature":"CI","capacite":20,"geo_point_2d":{"lon":3.0133508184102116,"lat":43.624297984048255},"gdb_archive_oid":167}},{"type":"Feature","geometry":{"coordinates":[3.0340793619817754,43.68986862808914],"type":"Point"},"properties":{"n_eau_1":"CAM0522","n_eau_2":"522","nature":"CI","capacite":20,"geo_point_2d":{"lon":3.0340793619817754,"lat":43.68986862808914},"gdb_archive_oid":174}},{"type":"Feature","geometry":{"coordinates":[3.770705301663799,43.51561000683302],"type":"Point"},"properties":{"n_eau_1":"GAR0428","n_eau_2":"428","nature":"CI","capacite":20,"geo_point_2d":{"lon":3.770705301663799,"lat":43.51561000683302},"gdb_archive_oid":179}},{"type":"Feature","geometry":{"coordinates":[3.2292742060800217,43.62168600509237],"type":"Point"},"properties":{"n_eau_1":"AVF0120","n_eau_2":"120","nature":"CI","capacite":30,"geo_point_2d":{"lon":3.2292742060800217,"lat":43.62168600509237},"gdb_archive_oid":186}},{"type":"Feature","geometry":{"coordinates":[3.284995642805003,43.77197858590227],"type":"Point"},"properties":{"n_eau_1":"EON0432","n_eau_2":"432","nature":"CI","capacite":30,"geo_point_2d":{"lon":3.284995642805003,"lat":43.77197858590227},"gdb_archive_oid":188}},{"type":"Feature","geometry":{"coordinates":[3.359179633379946,43.603189690423655],"type":"Point"},"properties":{"n_eau_1":"AVF0533","n_eau_2":"533","nature":"CI","capacite":30,"geo_point_2d":{"lon":3.359179633379946,"lat":43.603189690423655},"gdb_archive_oid":192}},{"type":"Feature","geometry":{"coordinates":[3.382385977723841,43.73769014935315],"type":"Point"},"properties":{"n_eau_1":"LOE0357","n_eau_2":"357","nature":"CI","capacite":30,"geo_point_2d":{"lon":3.382385977723841,"lat":43.73769014935315},"gdb_archive_oid":194}},{"type":"Feature","geometry":{"coordinates":[3.422759542199791,43.74218787261764],"type":"Point"},"properties":{"n_eau_1":"LOE0434","n_eau_2":"434","nature":"CI","capacite":25,"geo_point_2d":{"lon":3.422759542199791,"lat":43.74218787261764},"gdb_archive_oid":195}},{"type":"Feature","geometry":{"coordinates":[3.5060790801914976,43.43770980062598],"type":"Point"},"properties":{"n_eau_1":"PLB0502","n_eau_2":"502","nature":"CI","capacite":40,"geo_point_2d":{"lon":3.5060790801914976,"lat":43.43770980062598},"gdb_archive_oid":197}},{"type":"Feature","geometry":{"coordinates":[3.5737272931804767,43.60751374235564],"type":"Point"},"properties":{"n_eau_1":"AUO0128","n_eau_2":"128","nature":"CI","capacite":25,"geo_point_2d":{"lon":3.5737272931804767,"lat":43.60751374235564},"gdb_archive_oid":200}},{"type":"Feature","geometry":{"coordinates":[2.5621902641473864,43.394487032843294],"type":"Point"},"properties":{"n_eau_1":"AVM0086","n_eau_2":"086","nature":"CI","capacite":20,"geo_point_2d":{"lon":2.5621902641473864,"lat":43.394487032843294},"gdb_archive_oid":236}},{"type":"Feature","geometry":{"coordinates":[3.195054552261608,43.69328826974033],"type":"Point"},"properties":{"n_eau_1":"EOS0297","n_eau_2":"297","nature":"CI","capacite":20,"geo_point_2d":{"lon":3.195054552261608,"lat":43.69328826974033},"gdb_archive_oid":286}},{"type":"Feature","geometry":{"coordinates":[3.803419125869081,43.535293352936826],"type":"Point"},"properties":{"n_eau_1":"GAR0221","n_eau_2":"221","nature":"CI","capacite":30,"geo_point_2d":{"lon":3.803419125869081,"lat":43.535293352936826},"gdb_archive_oid":213}},{"type":"Feature","geometry":{"coordinates":[2.6502057258895317,43.61518895253842],"type":"Point"},"properties":{"n_eau_1":"CAS0007","n_eau_2":"007","nature":"CI","capacite":20,"geo_point_2d":{"lon":2.6502057258895317,"lat":43.61518895253842},"gdb_archive_oid":226}},{"type":"Feature","geometry":{"coordinates":[2.9973924588295535,43.45661012412434],"type":"Point"},"properties":{"n_eau_1":"AVA0539","n_eau_2":"539","nature":"CI","capacite":30,"geo_point_2d":{"lon":2.9973924588295535,"lat":43.45661012412434},"gdb_archive_oid":234}},{"type":"Feature","geometry":{"coordinates":[2.592079080748535,43.35280320289104],"type":"Point"},"properties":{"n_eau_1":"AVM0405","n_eau_2":"405","nature":"CI","capacite":35,"geo_point_2d":{"lon":2.592079080748535,"lat":43.35280320289104},"gdb_archive_oid":237}},{"type":"Feature","geometry":{"coordinates":[2.6061468653723368,43.40451350263348],"type":"Point"},"properties":{"n_eau_1":"AVM0259","n_eau_2":"259","nature":"CI","capacite":25,"geo_point_2d":{"lon":2.6061468653723368,"lat":43.40451350263348},"gdb_archive_oid":238}},{"type":"Feature","geometry":{"coordinates":[2.634621924836108,43.36741751105948],"type":"Point"},"properties":{"n_eau_1":"AVV0237","n_eau_2":"237","nature":"CI","capacite":30,"geo_point_2d":{"lon":2.634621924836108,"lat":43.36741751105948},"gdb_archive_oid":239}},{"type":"Feature","geometry":{"coordinates":[2.80195273618676,43.32733127336305],"type":"Point"},"properties":{"n_eau_1":"AVV0254","n_eau_2":"254","nature":"CI","capacite":30,"geo_point_2d":{"lon":2.80195273618676,"lat":43.32733127336305},"gdb_archive_oid":246}},{"type":"Feature","geometry":{"coordinates":[2.876347637665835,43.57186663559805],"type":"Point"},"properties":{"n_eau_1":"CAO0439","n_eau_2":"439","nature":"CI","capacite":35,"geo_point_2d":{"lon":2.876347637665835,"lat":43.57186663559805},"gdb_archive_oid":255}},{"type":"Feature","geometry":{"coordinates":[2.921987667768959,43.46143512988844],"type":"Point"},"properties":{"n_eau_1":"AVA0287","n_eau_2":"287","nature":"CI","capacite":25,"geo_point_2d":{"lon":2.921987667768959,"lat":43.46143512988844},"gdb_archive_oid":260}},{"type":"Feature","geometry":{"coordinates":[2.935087447956009,43.36930240483963],"type":"Point"},"properties":{"n_eau_1":"AVC0210","n_eau_2":"210","nature":"CI","capacite":20,"geo_point_2d":{"lon":2.935087447956009,"lat":43.36930240483963},"gdb_archive_oid":264}},{"type":"Feature","geometry":{"coordinates":[2.969073786553756,43.459896996544025],"type":"Point"},"properties":{"n_eau_1":"AVA0305","n_eau_2":"305","nature":"CI","capacite":30,"geo_point_2d":{"lon":2.969073786553756,"lat":43.459896996544025},"gdb_archive_oid":266}},{"type":"Feature","geometry":{"coordinates":[2.9946702736939432,43.558998708870156],"type":"Point"},"properties":{"n_eau_1":"AVF0307","n_eau_2":"307","nature":"CI","capacite":30,"geo_point_2d":{"lon":2.9946702736939432,"lat":43.558998708870156},"gdb_archive_oid":269}},{"type":"Feature","geometry":{"coordinates":[3.0517088797059984,43.66075457773032],"type":"Point"},"properties":{"n_eau_1":"CAM0323","n_eau_2":"323","nature":"CI","capacite":25,"geo_point_2d":{"lon":3.0517088797059984,"lat":43.66075457773032},"gdb_archive_oid":276}},{"type":"Feature","geometry":{"coordinates":[3.0727487992513622,43.646377080844516],"type":"Point"},"properties":{"n_eau_1":"CAM0423","n_eau_2":"423","nature":"CI","capacite":20,"geo_point_2d":{"lon":3.0727487992513622,"lat":43.646377080844516},"gdb_archive_oid":279}},{"type":"Feature","geometry":{"coordinates":[3.0758337357556464,43.72331705324366],"type":"Point"},"properties":{"n_eau_1":"CAM0241","n_eau_2":"241","nature":"CI","capacite":37,"geo_point_2d":{"lon":3.0758337357556464,"lat":43.72331705324366},"gdb_archive_oid":280}},{"type":"Feature","geometry":{"coordinates":[3.1120980980742656,43.48566688042408],"type":"Point"},"properties":{"n_eau_1":"AVF0327","n_eau_2":"327","nature":"CI","capacite":20,"geo_point_2d":{"lon":3.1120980980742656,"lat":43.48566688042408},"gdb_archive_oid":282}},{"type":"Feature","geometry":{"coordinates":[3.4463351551991788,43.75827778773819],"type":"Point"},"properties":{"n_eau_1":"LOE0361","n_eau_2":"361","nature":"CI","capacite":30,"geo_point_2d":{"lon":3.4463351551991788,"lat":43.75827778773819},"gdb_archive_oid":294}},{"type":"Feature","geometry":{"coordinates":[3.8032294647532567,43.72819366236086],"type":"Point"},"properties":{"n_eau_1":"HES0251","n_eau_2":"251","nature":"CI","capacite":30,"geo_point_2d":{"lon":3.8032294647532567,"lat":43.72819366236086},"gdb_archive_oid":316}},{"type":"Feature","geometry":{"coordinates":[3.7241545410004964,43.588634016775345],"type":"Point"},"properties":{"n_eau_1":"AUE0376","n_eau_2":"376","nature":"CI","capacite":25,"geo_point_2d":{"lon":3.7241545410004964,"lat":43.588634016775345},"gdb_archive_oid":320}},{"type":"Feature","geometry":{"coordinates":[3.632281212306052,43.57963930310648],"type":"Point"},"properties":{"n_eau_1":"AUO0545","n_eau_2":"545","nature":"CI","capacite":30,"geo_point_2d":{"lon":3.632281212306052,"lat":43.57963930310648},"gdb_archive_oid":327}}]}